{"type":"FeatureCollection","bbox":[-123.26,49.22,-122.97,49.44],"features":[{"type":"Feature","properties":{"name":"Vancouver regional land","source":"OpenStreetMap contributors","license":"ODbL-1.0","sourceDate":"2026-09-04","simplificationMetres":15,"method":"Clipped source coastlines polygonized with study boundary; land selected from OSM land-left direction."},"geometry":{"type":"MultiPolygon","coordinates":[[[[-123.2358904,49.2307888],[-123.2387522,49.2327565],[-123.2381177,49.232894],[-123.2347677,49.2309449],[-123.2358904,49.2307888]]],[[[-123.2408062,49.2345864],[-123.2384846,49.2331245],[-123.2391468,49.2329975],[-123.2418472,49.2344509],[-123.2459155,49.2375523],[-123.2408062,49.2345864]]],[[[-123.0016331,49.2907309],[-123.0004297,49.2904221],[-122.9909883,49.2943854],[-122.9888168,49.295018],[-122.9874692,49.2951075],[-122.9858643,49.2948666],[-122.9825942,49.2934672],[-122.981178,49.2924148],[-122.9801509,49.2922468],[-122.977307,49.2909202],[-122.9748179,49.2900861],[-122.974303,49.2899685],[-122.9727048,49.2904508],[-122.970096,49.2894875],[-122.9703713,49.2884831],[-122.97,49.2883841],[-122.97,49.22],[-123.2150626,49.22],[-123.2159342,49.2208993],[-123.2179827,49.2219573],[-123.2199725,49.2228109],[-123.221417,49.2229778],[-123.2245539,49.2247789],[-123.2260243,49.2252231],[-123.2285548,49.2265112],[-123.2303327,49.2267907],[-123.2330994,49.2291308],[-123.2353275,49.2303688],[-123.2342631,49.2306639],[-123.2308993,49.2285585],[-123.2279744,49.2270784],[-123.2244413,49.2254195],[-123.222665,49.2251213],[-123.2203153,49.2274091],[-123.2213019,49.2278603],[-123.2199275,49.2276995],[-123.2180033,49.2281341],[-123.2179627,49.2288821],[-123.2173809,49.2294352],[-123.2162024,49.2295435],[-123.2148177,49.2287426],[-123.2142063,49.2289927],[-123.2147919,49.2292092],[-123.2152522,49.2298369],[-123.215156,49.2301506],[-123.215639,49.2303924],[-123.2157354,49.2311245],[-123.2151049,49.2313832],[-123.2151565,49.2318449],[-123.2143831,49.2317391],[-123.2147367,49.2330834],[-123.218942,49.2350879],[-123.2224068,49.2373071],[-123.2240966,49.2380906],[-123.2250736,49.2390267],[-123.2339573,49.2426185],[-123.2386881,49.24538],[-123.2427347,49.2469609],[-123.2473803,49.2483897],[-123.2524926,49.2511805],[-123.2533315,49.2523633],[-123.2541266,49.2546687],[-123.2563306,49.2560196],[-123.2573393,49.2582578],[-123.2586357,49.2589507],[-123.2593951,49.2604069],[-123.26,49.2604866],[-123.26,49.2718103],[-123.2578167,49.2729457],[-123.256287,49.2742541],[-123.2526468,49.2757604],[-123.251722,49.2767122],[-123.2493935,49.2783238],[-123.2470207,49.2792765],[-123.24434,49.2797911],[-123.241974,49.2799018],[-123.2373379,49.2792827],[-123.2363127,49.2793931],[-123.2363154,49.2791612],[-123.2354304,49.2789685],[-123.2341797,49.2794762],[-123.2342482,49.2796631],[-123.2314218,49.2791224],[-123.2274212,49.2788447],[-123.2270591,49.2784245],[-123.2251894,49.2779031],[-123.2240202,49.2781231],[-123.2238626,49.2779358],[-123.2228909,49.2779258],[-123.2217175,49.27832],[-123.2214816,49.2779574],[-123.2193752,49.2777402],[-123.2186812,49.27726],[-123.2164164,49.2776004],[-123.2159105,49.277113],[-123.2153025,49.2769387],[-123.213107,49.277145],[-123.2126019,49.276574],[-123.2111552,49.2764907],[-123.2106426,49.2756746],[-123.2097495,49.2753806],[-123.2058279,49.2756314],[-123.2021897,49.2763855],[-123.2019979,49.2766375],[-123.2017484,49.2761392],[-123.2000566,49.2756882],[-123.1999804,49.2754772],[-123.1987061,49.2753404],[-123.1984721,49.275455],[-123.198686,49.2757669],[-123.1982254,49.2753876],[-123.1986431,49.2749939],[-123.1983038,49.2746503],[-123.1972236,49.2742196],[-123.1963865,49.2742281],[-123.1963002,49.2740916],[-123.1967175,49.2740122],[-123.1966171,49.2734923],[-123.1947713,49.2726198],[-123.1909518,49.2727878],[-123.1875357,49.2734801],[-123.1837957,49.2732092],[-123.1829414,49.2726527],[-123.1793183,49.2721645],[-123.1717451,49.2716623],[-123.1706328,49.2717035],[-123.1671279,49.2726065],[-123.1643924,49.2739909],[-123.1632118,49.2741906],[-123.1619693,49.2740891],[-123.1605222,49.2743665],[-123.1593896,49.2737331],[-123.1578323,49.2738426],[-123.1553805,49.2736148],[-123.1551789,49.2741475],[-123.1520109,49.277638],[-123.1495796,49.2778023],[-123.1478893,49.2791949],[-123.1472981,49.2790949],[-123.147828,49.2789145],[-123.1477775,49.2784578],[-123.146465,49.2778976],[-123.1457159,49.2780309],[-123.1451282,49.278789],[-123.1441159,49.2788569],[-123.1424272,49.2784557],[-123.1403527,49.2773103],[-123.1406496,49.2771159],[-123.1401013,49.2764994],[-123.1401361,49.2760977],[-123.1384733,49.274337],[-123.1393591,49.2741318],[-123.1399238,49.2727954],[-123.1390368,49.2710245],[-123.1379156,49.2707437],[-123.1372007,49.2701186],[-123.1367197,49.2704848],[-123.137346,49.2716517],[-123.1369268,49.272875],[-123.1364783,49.2731072],[-123.1350904,49.2730881],[-123.1316617,49.270726],[-123.1305565,49.2696091],[-123.1306846,49.2683954],[-123.1326943,49.2685923],[-123.1339037,49.2689786],[-123.1341333,49.2686133],[-123.1338466,49.2683474],[-123.133458,49.2684464],[-123.1329861,49.2678943],[-123.1324093,49.2678238],[-123.13174,49.267247],[-123.1312484,49.2673066],[-123.1306191,49.2679542],[-123.1298988,49.2679702],[-123.1294806,49.2682438],[-123.1258002,49.2681479],[-123.1250481,49.2676872],[-123.1245187,49.2676383],[-123.1241039,49.2678379],[-123.1238918,49.2683639],[-123.1230361,49.2682186],[-123.1220588,49.2686359],[-123.1213917,49.2685359],[-123.1208105,49.2677674],[-123.1192171,49.2677169],[-123.1188603,49.267958],[-123.1188017,49.2688428],[-123.1181298,49.269438],[-123.1146674,49.2712894],[-123.1136144,49.2712268],[-123.111596,49.2716866],[-123.1116675,49.2718678],[-123.1113736,49.2719171],[-123.1107653,49.2717395],[-123.1092221,49.2724246],[-123.1078627,49.2723165],[-123.1077776,49.2717458],[-123.1073076,49.2717638],[-123.1071251,49.2722864],[-123.1062258,49.2720875],[-123.1029836,49.2722508],[-123.102803,49.2730704],[-123.1033763,49.2740427],[-123.1034015,49.2755133],[-123.10837,49.2758693],[-123.108938,49.2742089],[-123.1102306,49.2744608],[-123.1103459,49.2740897],[-123.1111492,49.2741274],[-123.1129854,49.2731682],[-123.114615,49.2726431],[-123.1161358,49.2726119],[-123.1178869,49.2733329],[-123.1191596,49.2731542],[-123.1197253,49.2726724],[-123.1200376,49.2712404],[-123.1207517,49.2709604],[-123.1213595,49.2711171],[-123.1217541,49.2709577],[-123.1221787,49.2712285],[-123.1224175,49.2710767],[-123.1235864,49.271868],[-123.1246416,49.2719411],[-123.1258654,49.2710257],[-123.1255174,49.2707978],[-123.1258308,49.2706455],[-123.1272601,49.2706906],[-123.1292141,49.2718341],[-123.1300236,49.2714906],[-123.1299909,49.2717606],[-123.1308731,49.2723264],[-123.1306139,49.2724986],[-123.1309152,49.272695],[-123.1315084,49.2726518],[-123.1327017,49.2732406],[-123.1325675,49.2733846],[-123.1330317,49.2737649],[-123.1328592,49.2740427],[-123.1332669,49.2742749],[-123.1337042,49.2740606],[-123.1342105,49.2745073],[-123.1346391,49.2744845],[-123.1348101,49.2749202],[-123.1344089,49.2751816],[-123.1350571,49.2755938],[-123.1355975,49.275417],[-123.1361203,49.275565],[-123.1363132,49.2758501],[-123.1360425,49.2762339],[-123.1366915,49.2773843],[-123.1375357,49.2777302],[-123.1377894,49.2774514],[-123.1384217,49.2778708],[-123.1383871,49.2787286],[-123.1394997,49.2788454],[-123.1394217,49.2796348],[-123.1402845,49.2797035],[-123.1403464,49.2808559],[-123.1408564,49.281156],[-123.1412161,49.2808211],[-123.1412613,49.2813378],[-123.142893,49.2835577],[-123.144165,49.2842882],[-123.1438555,49.2845213],[-123.1434371,49.286631],[-123.1434735,49.2884588],[-123.144915,49.2894462],[-123.1453094,49.289414],[-123.1467563,49.2901186],[-123.1470621,49.2899772],[-123.1467935,49.2901477],[-123.1498996,49.292734],[-123.1504654,49.2948185],[-123.1508223,49.2950845],[-123.1516418,49.2949623],[-123.1527596,49.2953518],[-123.1530198,49.2961885],[-123.1540818,49.2975104],[-123.1548346,49.2977048],[-123.1568877,49.2973692],[-123.1579238,49.2981123],[-123.1582894,49.3002992],[-123.1588302,49.3012036],[-123.1571981,49.3018316],[-123.1569182,49.3021367],[-123.1567976,49.3040639],[-123.1559584,49.3072415],[-123.1561008,49.3085922],[-123.1550632,49.3085776],[-123.1541146,49.3094324],[-123.1527502,49.3100462],[-123.152474,49.3113172],[-123.1500118,49.3125954],[-123.1426111,49.3139774],[-123.1413739,49.3140657],[-123.1409059,49.3133781],[-123.1395869,49.3129296],[-123.1389175,49.311965],[-123.1366251,49.3098152],[-123.1356903,49.3081841],[-123.1355862,49.3070431],[-123.1326465,49.3057514],[-123.1318249,49.3051326],[-123.1319482,49.3048753],[-123.1312232,49.3039044],[-123.1294829,49.302771],[-123.1278649,49.3025465],[-123.1264171,49.3027236],[-123.124478,49.3011509],[-123.1211125,49.2998588],[-123.1188782,49.2997219],[-123.1170539,49.3009264],[-123.1164106,49.3002325],[-123.1175112,49.2980206],[-123.1198217,49.2979558],[-123.1211957,49.2984079],[-123.1224962,49.2976006],[-123.1231736,49.2975988],[-123.1234228,49.2973892],[-123.1233103,49.2963806],[-123.1223861,49.2963037],[-123.1212138,49.2957324],[-123.1222907,49.2943495],[-123.1231027,49.2939772],[-123.1240827,49.2940118],[-123.1245135,49.2942472],[-123.123798,49.2951794],[-123.1237835,49.2971649],[-123.1238263,49.2977074],[-123.1245524,49.297818],[-123.1262287,49.2974325],[-123.1274392,49.2961563],[-123.127934,49.2959595],[-123.1289251,49.2963133],[-123.1302407,49.2976759],[-123.1310533,49.2975857],[-123.1323457,49.2968459],[-123.1343902,49.2968813],[-123.1353832,49.2962162],[-123.1358001,49.295333],[-123.1353697,49.2951257],[-123.1346007,49.2953173],[-123.1340776,49.2951251],[-123.133664,49.2947945],[-123.1336976,49.2944361],[-123.1307387,49.2928784],[-123.1294531,49.2936047],[-123.1287001,49.2931321],[-123.1274347,49.2927897],[-123.1272264,49.2926539],[-123.1283652,49.2918972],[-123.1263692,49.2906748],[-123.1247644,49.2905905],[-123.1232769,49.2914568],[-123.121214,49.2903346],[-123.1197347,49.2899351],[-123.1189391,49.2898696],[-123.1176561,49.2905253],[-123.1139705,49.2894209],[-123.1149518,49.2882896],[-123.1112377,49.2868157],[-123.1103257,49.2870679],[-123.110387,49.2873606],[-123.1093311,49.2862526],[-123.1068452,49.2866564],[-123.1042086,49.2860471],[-123.1034639,49.2863708],[-123.1030177,49.2854653],[-123.1021474,49.2853451],[-123.0997695,49.2855817],[-123.0993199,49.2870315],[-123.0986938,49.2868647],[-123.0978147,49.2854016],[-123.0962064,49.2856712],[-123.0963319,49.2864167],[-123.0972434,49.2871436],[-123.1021017,49.2885293],[-123.102181,49.2888927],[-123.1010337,49.2905171],[-123.091805,49.2879638],[-123.0917402,49.2895324],[-123.0866379,49.2881704],[-123.0865743,49.2866323],[-123.0842559,49.286196],[-123.0840961,49.2838593],[-123.0827748,49.2837653],[-123.082,49.2850575],[-123.0822111,49.2862209],[-123.0816905,49.28637],[-123.0812254,49.2869526],[-123.0803743,49.2870205],[-123.0799737,49.2851436],[-123.0797209,49.2871609],[-123.078606,49.2869568],[-123.0772068,49.2874556],[-123.0771923,49.2888467],[-123.0778991,49.2890207],[-123.0778592,49.2896873],[-123.0698091,49.2880117],[-123.0697891,49.2896491],[-123.0685259,49.289645],[-123.0685884,49.2865899],[-123.0670845,49.2866228],[-123.0671044,49.2873371],[-123.0663303,49.2874609],[-123.0649126,49.2873159],[-123.0648596,49.2866076],[-123.0644071,49.2865725],[-123.0639676,49.287477],[-123.063521,49.2875362],[-123.0635617,49.2880982],[-123.062508,49.2881363],[-123.062329,49.2888545],[-123.061048,49.2899521],[-123.0605122,49.289927],[-123.05684,49.2919473],[-123.0564075,49.2919158],[-123.0529438,49.2932077],[-123.0500041,49.2939578],[-123.0494856,49.2933254],[-123.0486313,49.2933248],[-123.047519,49.2937246],[-123.046531,49.2936926],[-123.0458903,49.2926651],[-123.0439546,49.2919786],[-123.0430638,49.2923606],[-123.0404768,49.2921355],[-123.0398281,49.2919021],[-123.0395474,49.2912554],[-123.0391022,49.2910455],[-123.0375083,49.29092],[-123.0368353,49.2904755],[-123.0362233,49.2906108],[-123.0358825,49.2903306],[-123.035161,49.2904366],[-123.034201,49.2900913],[-123.0337252,49.2902996],[-123.034103,49.2909247],[-123.0327737,49.2910916],[-123.0316568,49.2906573],[-123.0288723,49.2922851],[-123.027628,49.2927424],[-123.0268872,49.2924503],[-123.0255318,49.2933232],[-123.0251562,49.2930897],[-123.0202734,49.2934827],[-123.0180324,49.2934505],[-123.0099764,49.2924107],[-123.0083712,49.2919919],[-123.0075873,49.2914793],[-123.0060193,49.2909667],[-123.0029358,49.2906537],[-123.0016331,49.2907309]]],[[[-123.1113659,49.2722123],[-123.1106502,49.2724446],[-123.1100908,49.2723542],[-123.1103877,49.2721348],[-123.1113659,49.2722123]]],[[[-123.1559357,49.308752],[-123.1558795,49.3087701],[-123.1558722,49.3087229],[-123.1559357,49.308752]]],[[[-123.1560899,49.3087267],[-123.1560852,49.3087919],[-123.1559231,49.3087915],[-123.1560899,49.3087267]]],[[[-123.0410507,49.3000222],[-123.0413918,49.299527],[-123.0418702,49.2994688],[-123.0423514,49.2998102],[-123.0420017,49.3003416],[-123.0483156,49.3022954],[-123.046237,49.3039249],[-123.0475274,49.3043226],[-123.0504069,49.3029145],[-123.0517596,49.3033436],[-123.0519032,49.3031461],[-123.0522144,49.3032457],[-123.0520695,49.3034328],[-123.0561131,49.3046812],[-123.0559326,49.3059313],[-123.0563509,49.3060358],[-123.0613382,49.3054482],[-123.0621073,49.3051488],[-123.0645678,49.3050264],[-123.0647631,49.30482],[-123.0671695,49.3046654],[-123.0673881,49.3049625],[-123.0711295,49.3048316],[-123.0741594,49.3061691],[-123.0742096,49.3066085],[-123.0748219,49.3068608],[-123.0762378,49.3056293],[-123.0750153,49.3070147],[-123.076059,49.3070623],[-123.0760611,49.3074516],[-123.0780684,49.308159],[-123.0779192,49.3084695],[-123.0783924,49.308595],[-123.0780987,49.3088799],[-123.0799913,49.3094006],[-123.0802638,49.3092898],[-123.0805854,49.3094919],[-123.0802584,49.3098782],[-123.081261,49.3100084],[-123.0814812,49.3103255],[-123.0824606,49.3095277],[-123.0828385,49.3098547],[-123.0834877,49.3093814],[-123.0834922,49.3097379],[-123.0841702,49.3093653],[-123.083822,49.3098787],[-123.084275,49.3097138],[-123.0839488,49.3101582],[-123.0845711,49.3104417],[-123.0841942,49.310828],[-123.0852207,49.3114991],[-123.0855139,49.3111725],[-123.0869456,49.3117819],[-123.0872224,49.3122936],[-123.0869369,49.3126349],[-123.0875207,49.3137381],[-123.0902868,49.3148496],[-123.0914177,49.3129734],[-123.0913045,49.3137525],[-123.0903914,49.3151507],[-123.0916943,49.3132976],[-123.0949748,49.3130971],[-123.1018727,49.313202],[-123.1017869,49.3164752],[-123.1021588,49.3170306],[-123.1025336,49.3163691],[-123.1028369,49.310663],[-123.1036351,49.310691],[-123.1035828,49.3129153],[-123.1029656,49.3128957],[-123.1029055,49.3139421],[-123.1032477,49.3140894],[-123.1059188,49.3139233],[-123.1059457,49.312954],[-123.1063777,49.3129571],[-123.10636,49.3137895],[-123.1066306,49.3137843],[-123.1066606,49.3129433],[-123.1072323,49.3128398],[-123.1074076,49.3107062],[-123.1081867,49.3108533],[-123.1082759,49.3126319],[-123.1084218,49.3106483],[-123.1092526,49.3106108],[-123.1101052,49.309961],[-123.1104386,49.3107774],[-123.1134198,49.3109204],[-123.1136592,49.3134002],[-123.1147996,49.3127153],[-123.1142213,49.3089362],[-123.1144819,49.3085487],[-123.1150404,49.3085633],[-123.1188524,49.3100979],[-123.1198972,49.3111191],[-123.1209015,49.3107742],[-123.1269873,49.3130167],[-123.1272576,49.3130822],[-123.1276773,49.312682],[-123.1273865,49.313247],[-123.1312657,49.3151675],[-123.1345358,49.315906],[-123.1360642,49.3169988],[-123.1371365,49.3168852],[-123.1375233,49.3171947],[-123.1376298,49.3193135],[-123.1379836,49.319848],[-123.1377977,49.3206989],[-123.1381611,49.320859],[-123.1389951,49.3204407],[-123.1418498,49.3202921],[-123.1399012,49.3209315],[-123.1391388,49.3214385],[-123.1391692,49.3216719],[-123.1398692,49.321945],[-123.1412394,49.3215041],[-123.14342,49.3215806],[-123.1461675,49.3225487],[-123.1474225,49.3218794],[-123.1485469,49.321641],[-123.1483614,49.3220094],[-123.1494989,49.3230193],[-123.1500995,49.3231372],[-123.1508315,49.3227847],[-123.1503035,49.3232342],[-123.1503997,49.3235386],[-123.1515521,49.3252687],[-123.1527524,49.3264681],[-123.1542696,49.326686],[-123.1545035,49.3262141],[-123.154788,49.3266086],[-123.1553981,49.3267445],[-123.1599674,49.3267138],[-123.1604223,49.3265429],[-123.1614029,49.3268835],[-123.1636552,49.3269545],[-123.1654575,49.3272711],[-123.1693957,49.3273155],[-123.1706015,49.3277973],[-123.1740193,49.3306187],[-123.1765899,49.3317841],[-123.1794474,49.3322403],[-123.1813368,49.3329336],[-123.1818428,49.3327099],[-123.182524,49.3328293],[-123.182599,49.3320809],[-123.1826943,49.3325917],[-123.1836952,49.3333734],[-123.1840166,49.3335176],[-123.1843567,49.3332378],[-123.1853234,49.3333015],[-123.1881639,49.3347844],[-123.194708,49.3350047],[-123.1961242,49.3356898],[-123.1986496,49.3378387],[-123.2014136,49.3383534],[-123.2032375,49.337878],[-123.2043747,49.338626],[-123.2050936,49.3396816],[-123.2055594,49.3396614],[-123.2068049,49.3401855],[-123.2087593,49.3398339],[-123.2092995,49.3400498],[-123.2098991,49.339986],[-123.2103839,49.3404449],[-123.2114343,49.3407233],[-123.21257,49.3403061],[-123.213581,49.3392828],[-123.2146453,49.3394282],[-123.2170829,49.3383265],[-123.2199831,49.3381295],[-123.2211407,49.3383705],[-123.2224957,49.339279],[-123.2233583,49.339115],[-123.2245085,49.3393125],[-123.2280015,49.3411237],[-123.2293335,49.3411907],[-123.231229,49.3410402],[-123.2318887,49.3404842],[-123.2333319,49.340176],[-123.2333966,49.339695],[-123.236357,49.3385203],[-123.237706,49.338239],[-123.240974,49.3380755],[-123.2412493,49.338623],[-123.2420222,49.3381433],[-123.2424353,49.3381972],[-123.2432617,49.3387451],[-123.2434058,49.3392172],[-123.243835,49.3390774],[-123.2441747,49.3392691],[-123.2436633,49.339385],[-123.2446504,49.3401959],[-123.2455665,49.3405256],[-123.2484172,49.3404793],[-123.2494176,49.3398895],[-123.2502455,49.3386003],[-123.2499357,49.3376705],[-123.2502776,49.3374075],[-123.2507202,49.3374625],[-123.2509039,49.3371663],[-123.2522692,49.3375237],[-123.2534198,49.3373018],[-123.2537612,49.3374472],[-123.2536545,49.3379617],[-123.254014,49.3380651],[-123.2541884,49.3385217],[-123.2545371,49.338658],[-123.2551379,49.3385182],[-123.2542473,49.336151],[-123.2542418,49.3349078],[-123.2551541,49.3339593],[-123.2565225,49.333224],[-123.2566401,49.332842],[-123.2576658,49.3326221],[-123.2578672,49.3332889],[-123.258107,49.3332931],[-123.258722,49.3331531],[-123.2588311,49.3327057],[-123.2590983,49.3329364],[-123.2594176,49.3325827],[-123.26,49.3326005],[-123.26,49.3871431],[-123.2584218,49.3886971],[-123.25795,49.3910186],[-123.2569195,49.3915698],[-123.2558519,49.3931108],[-123.2529117,49.3948255],[-123.2518161,49.3958182],[-123.251883,49.3983362],[-123.2522374,49.3991357],[-123.2520206,49.3994902],[-123.2510031,49.4002983],[-123.2499073,49.4005881],[-123.2453754,49.402841],[-123.2451885,49.4037566],[-123.2439245,49.4054686],[-123.2443401,49.4056138],[-123.2444684,49.4066009],[-123.2434654,49.4073671],[-123.2429878,49.4081604],[-123.2429201,49.4087272],[-123.2435772,49.4090529],[-123.2431602,49.4099407],[-123.2424333,49.4106442],[-123.2419241,49.4106271],[-123.2412922,49.4111854],[-123.2413382,49.411842],[-123.2403366,49.4129244],[-123.236157,49.4154509],[-123.2360986,49.416214],[-123.235048,49.4170776],[-123.2344896,49.4180288],[-123.2345428,49.4195499],[-123.2352487,49.4208633],[-123.2350853,49.4218996],[-123.2337659,49.4229591],[-123.2332175,49.4250057],[-123.2333944,49.4259611],[-123.2339981,49.4261638],[-123.2337569,49.4280243],[-123.2365632,49.4310819],[-123.2363813,49.4322165],[-123.2355346,49.4329877],[-123.2362855,49.4342702],[-123.2367301,49.4361392],[-123.2380214,49.4371356],[-123.2386443,49.4380453],[-123.2391943,49.4382235],[-123.2389428,49.44],[-122.97,49.44],[-122.97,49.3033181],[-122.9714728,49.3035407],[-122.9763931,49.3062541],[-122.9785042,49.3068783],[-122.9816435,49.3074605],[-122.9840224,49.3076176],[-122.9859285,49.3082476],[-122.9873391,49.3080443],[-122.989417,49.3070932],[-122.9911231,49.3076526],[-122.9917344,49.3083657],[-122.9945026,49.3078568],[-122.995206,49.308228],[-122.9964071,49.3083244],[-122.9996653,49.3067385],[-123.0007491,49.3041656],[-123.0012628,49.304113],[-123.0013971,49.304551],[-123.0020101,49.3040983],[-123.0024293,49.304224],[-123.0026298,49.3035116],[-123.0023551,49.3028904],[-123.0029817,49.3022299],[-123.0063462,49.3021292],[-123.00772,49.3029716],[-123.0076758,49.3024066],[-123.0082577,49.3016646],[-123.0084148,49.3025154],[-123.0089335,49.302508],[-123.009289,49.3020207],[-123.0089212,49.3013624],[-123.0090384,49.3003278],[-123.0084943,49.2992654],[-123.008685,49.2986162],[-123.0091622,49.3001488],[-123.0096301,49.3001686],[-123.0096284,49.2992542],[-123.0102359,49.2992317],[-123.0109707,49.2994563],[-123.0110815,49.3006685],[-123.0129523,49.3004812],[-123.0140413,49.2999414],[-123.0133586,49.2978648],[-123.0152127,49.2978067],[-123.0158041,49.2984477],[-123.0164554,49.298323],[-123.0166749,49.2987087],[-123.0170934,49.2986917],[-123.0176068,49.2982318],[-123.0176315,49.2977871],[-123.017708,49.2979216],[-123.0183519,49.2974919],[-123.0181589,49.2968911],[-123.0185889,49.2967259],[-123.018883,49.2969111],[-123.0193097,49.29867],[-123.0196021,49.2986197],[-123.0194909,49.2972927],[-123.0196044,49.2972603],[-123.0197922,49.2995339],[-123.0201835,49.3000562],[-123.0205842,49.2998781],[-123.0201814,49.2970468],[-123.0208266,49.2975736],[-123.021397,49.2998216],[-123.0215539,49.3000121],[-123.0219642,49.2999492],[-123.0229958,49.3029744],[-123.0234613,49.3033851],[-123.0243383,49.3031962],[-123.0243469,49.3021644],[-123.025695,49.3022346],[-123.023593,49.300403],[-123.0229099,49.2986751],[-123.0233898,49.2984074],[-123.0244224,49.2984239],[-123.0250177,49.2976162],[-123.0252205,49.2996623],[-123.0257852,49.2993132],[-123.0269395,49.2993557],[-123.0269826,49.3015078],[-123.0282485,49.301617],[-123.0284913,49.2994394],[-123.029932,49.2994144],[-123.0297669,49.2969668],[-123.0406349,49.2984205],[-123.03987,49.2987425],[-123.0393675,49.2986764],[-123.0395218,49.2988578],[-123.0382827,49.3018237],[-123.0382814,49.3051819],[-123.0387776,49.3051405],[-123.0389632,49.3022344],[-123.0398983,49.299778],[-123.0391244,49.3022295],[-123.0391824,49.3023984],[-123.0399525,49.3024552],[-123.0410507,49.3000222]]]]}}]}