{"type":"FeatureCollection","bbox":[-123.165,49.267,-123.095,49.315],"features":[{"type":"Feature","properties":{"name":"Art Phillips Park","class":"Urban Plaza","source":"cov-parks"},"geometry":{"type":"Polygon","coordinates":[[[-123.1204707,49.2855971],[-123.121033,49.2859612],[-123.1203737,49.2858652],[-123.1202527,49.2858413],[-123.1201419,49.2858131],[-123.1204707,49.2855971]]]}},{"type":"Feature","properties":{"name":"Alexandra Park","class":"Local","source":"cov-parks"},"geometry":{"type":"Polygon","coordinates":[[[-123.1414966,49.2855322],[-123.1426583,49.2847644],[-123.1423893,49.2861099],[-123.1414966,49.2855322]]]}},{"type":"Feature","properties":{"name":"Emery Barnes Park","class":"Neighbourhood","source":"cov-parks"},"geometry":{"type":"Polygon","coordinates":[[[-123.1237132,49.276902],[-123.1235344,49.2767864],[-123.1234752,49.2767866],[-123.1232664,49.2766516],[-123.1242383,49.2760084],[-123.125013,49.2765099],[-123.1237618,49.2773379],[-123.123404,49.2771066],[-123.1237132,49.276902]]]}},{"type":"Feature","properties":{"name":"Yaletown Park","class":"Urban Plaza","source":"cov-parks"},"geometry":{"type":"Polygon","coordinates":[[[-123.1189742,49.276771],[-123.1193316,49.2770023],[-123.1189634,49.2772464],[-123.1186073,49.2770142],[-123.1189742,49.276771]]]}},{"type":"Feature","properties":{"name":"Wendy Poole Park","class":"Local","source":"cov-parks"},"geometry":{"type":"Polygon","coordinates":[[[-123.0994322,49.2844767],[-123.0995819,49.2843052],[-123.0996517,49.2841915],[-123.0996626,49.284188],[-123.0998012,49.2841906],[-123.0997873,49.2844002],[-123.0994322,49.2844767]]]}},{"type":"Feature","properties":{"name":"Pioneer Place (Pigeon Park)","class":"Urban Plaza","source":"cov-parks"},"geometry":{"type":"Polygon","coordinates":[[[-123.1047884,49.2816679],[-123.1044679,49.281902],[-123.1044798,49.2816119],[-123.1047884,49.2816679]]]}},{"type":"Feature","properties":{"name":"Kitsilano Beach Park","class":"Community","source":"cov-parks"},"geometry":{"type":"Polygon","coordinates":[[[-123.1502239,49.2763482],[-123.1513142,49.2763657],[-123.1513205,49.2761848],[-123.152659,49.2746701],[-123.1527373,49.2726523],[-123.1595691,49.2727612],[-123.159545,49.2733819],[-123.1599073,49.2736306],[-123.1600441,49.2736327],[-123.1603425,49.2737285],[-123.1606504,49.2738099],[-123.1610331,49.2738889],[-123.1614111,49.2739446],[-123.1618224,49.2739815],[-123.1621954,49.2739943],[-123.1626064,49.2739859],[-123.1634693,49.2739342],[-123.1638291,49.273897],[-123.1641834,49.2738416],[-123.164182,49.2738827],[-123.1641252,49.273901],[-123.1640292,49.2739609],[-123.1639694,49.2739818],[-123.1637579,49.2740334],[-123.1634755,49.2740769],[-123.1634212,49.2740834],[-123.1633497,49.2740682],[-123.1632233,49.2740936],[-123.1628172,49.2740917],[-123.1626033,49.2740981],[-123.1625195,49.2740964],[-123.1623943,49.2740759],[-123.1621759,49.2740792],[-123.162,49.274146],[-123.161657,49.274207],[-123.161406,49.274244],[-123.161234,49.274297],[-123.160983,49.274335],[-123.160606,49.274335],[-123.160446,49.274313],[-123.160137,49.274231],[-123.159954,49.274157],[-123.159873,49.274059],[-123.15977,49.274007],[-123.159621,49.273903],[-123.15945,49.273836],[-123.159347,49.273806],[-123.159187,49.273776],[-123.158581,49.273859],[-123.1583979,49.273874],[-123.158124,49.273875],[-123.157747,49.27386],[-123.1573919,49.273824],[-123.1570259,49.273764],[-123.1564541,49.273623],[-123.156272,49.273593],[-123.155917,49.273564],[-123.155574,49.273602],[-123.155336,49.273699],[-123.155141,49.273812],[-123.155095,49.273901],[-123.155073,49.274081],[-123.1549591,49.274268],[-123.154732,49.274567],[-123.154401,49.274852],[-123.154116,49.275182],[-123.153866,49.275489],[-123.153079,49.276215],[-123.152794,49.2765],[-123.152578,49.276754],[-123.152499,49.276956],[-123.152362,49.277233],[-123.152192,49.277473],[-123.152066,49.277592],[-123.151884,49.277667],[-123.151564,49.277705],[-123.151187,49.277758],[-123.150947,49.277766],[-123.150661,49.277804],[-123.15033,49.277841],[-123.1501674,49.2778336],[-123.1502239,49.2763482]]]}},{"type":"Feature","properties":{"name":"Hadden Park","class":"Community","source":"cov-parks"},"geometry":{"type":"Polygon","coordinates":[[[-123.146353,49.277888],[-123.1462152,49.277889],[-123.1460766,49.2779267],[-123.1460955,49.2774757],[-123.1465331,49.2774842],[-123.1465234,49.2777171],[-123.1481858,49.277747],[-123.1482007,49.2773877],[-123.1481255,49.2774052],[-123.1480494,49.2774161],[-123.1479105,49.2774257],[-123.1477558,49.2773962],[-123.147614,49.277359],[-123.1473444,49.2773055],[-123.1472056,49.2773155],[-123.1470674,49.277318],[-123.1469292,49.277301],[-123.1467923,49.2772724],[-123.1467374,49.27727],[-123.1464174,49.2772887],[-123.1463435,49.2772995],[-123.1462404,49.2773231],[-123.1462597,49.2768602],[-123.1474985,49.2768802],[-123.1477723,49.2769333],[-123.1498528,49.2772959],[-123.1501876,49.2773013],[-123.1501674,49.2778336],[-123.149884,49.277744],[-123.149758,49.277715],[-123.149618,49.277715],[-123.149441,49.277725],[-123.149287,49.277793],[-123.1489261,49.277972],[-123.1487049,49.278073],[-123.148573,49.27818],[-123.148345,49.27833],[-123.1481679,49.278499],[-123.148095,49.278711],[-123.148103,49.278832],[-123.148052,49.278986],[-123.147993,49.279063],[-123.147809,49.279155],[-123.147669,49.279165],[-123.147529,49.279146],[-123.147529,49.279102],[-123.147617,49.279078],[-123.147779,49.27901],[-123.14786,49.278967],[-123.147875,49.278933],[-123.147896,49.278769],[-123.147881,49.278581],[-123.147851,49.278509],[-123.1476961,49.278408],[-123.14746,49.278355],[-123.147275,49.278307],[-123.146929,49.278206],[-123.146788,49.278153],[-123.146677,49.278038],[-123.146633,49.277956],[-123.146508,49.277907],[-123.146353,49.277888]]]}},{"type":"Feature","properties":{"name":"Vanier Park","class":"Destination","source":"cov-parks"},"geometry":{"type":"MultiPolygon","coordinates":[[[[-123.1406262,49.2740979],[-123.1395918,49.2744284],[-123.139555,49.274373],[-123.139555,49.274255],[-123.1395276,49.2741503],[-123.1406262,49.2740979]]],[[[-123.1462082,49.2738313],[-123.1461021,49.27629],[-123.1460958,49.2774627],[-123.1460766,49.2779267],[-123.1460301,49.277937],[-123.145863,49.277959],[-123.1457481,49.277996],[-123.145643,49.278059],[-123.145601,49.278178],[-123.145501,49.27841],[-123.1451761,49.278789],[-123.145047,49.278849],[-123.144856,49.278905],[-123.144636,49.278943],[-123.144383,49.278937],[-123.144167,49.2789],[-123.143684,49.278863],[-123.143363,49.278788],[-123.142788,49.278639],[-123.142525,49.278555],[-123.14219,49.27843],[-123.141969,49.278233],[-123.141825,49.278114],[-123.141671,49.277973],[-123.141494,49.277848],[-123.141211,49.277733],[-123.141015,49.277636],[-123.140862,49.277549],[-123.14078,49.27743],[-123.140631,49.277292],[-123.140598,49.277236],[-123.140573,49.277136],[-123.140568,49.277079],[-123.140462,49.276832],[-123.140347,49.276666],[-123.140299,49.276616],[-123.1400505,49.2764976],[-123.13999,49.2764633],[-123.1399613,49.2764358],[-123.1399555,49.2764134],[-123.1399737,49.276384],[-123.1400474,49.27634],[-123.140059,49.276153],[-123.139871,49.275881],[-123.139573,49.275487],[-123.1394771,49.275346],[-123.13941,49.275274],[-123.139338,49.275206],[-123.1392789,49.275162],[-123.1390916,49.274952],[-123.1396479,49.2747803],[-123.14196,49.2740342],[-123.1462082,49.2738313]]]]}},{"type":"Feature","properties":{"name":"Creekside Park","class":"Neighbourhood","source":"cov-parks"},"geometry":{"type":"MultiPolygon","coordinates":[[[[-123.1025043,49.272895],[-123.1022712,49.272896],[-123.1022572,49.272779],[-123.1022572,49.2726],[-123.1022842,49.272403],[-123.1023523,49.272188],[-123.1023792,49.27217],[-123.1024343,49.272098],[-123.1024625,49.2720013],[-123.1031317,49.2720135],[-123.1043643,49.272016],[-123.1043652,49.272293],[-123.1033102,49.272294],[-123.1030782,49.272313],[-123.1030092,49.272339],[-123.1029553,49.272393],[-123.1029273,49.272447],[-123.1029152,49.272904],[-123.1029283,49.272964],[-123.1028393,49.272973],[-123.1027372,49.272958],[-123.1025043,49.272895]]],[[[-123.102288,49.273917],[-123.102233,49.273738],[-123.102273,49.273505],[-123.102314,49.273514],[-123.102465,49.273514],[-123.1026159,49.273478],[-123.10289,49.273531],[-123.102931,49.273621],[-123.1033419,49.273988],[-123.103479,49.274005],[-123.103685,49.273996],[-123.103672,49.274364],[-123.103617,49.274373],[-123.103632,49.275009],[-123.103605,49.275027],[-123.103317,49.275036],[-123.1033591,49.2755211],[-123.1033561,49.2755929],[-123.1025784,49.275579],[-123.102371,49.274508],[-123.102329,49.27415],[-123.102288,49.273917]]]]}},{"type":"Feature","properties":{"name":"David Lam Park","class":"Community","source":"cov-parks"},"geometry":{"type":"Polygon","coordinates":[[[-123.1225135,49.2725494],[-123.1232481,49.2720637],[-123.1221623,49.2713604],[-123.1223997,49.2712037],[-123.1225235,49.2712839],[-123.1225042,49.2712967],[-123.1234268,49.2718942],[-123.1249008,49.2718892],[-123.1259824,49.2710995],[-123.1267138,49.2715729],[-123.1262373,49.2718883],[-123.1261614,49.2719433],[-123.1260435,49.2720474],[-123.1259459,49.2721602],[-123.1258998,49.2722278],[-123.125861,49.2722974],[-123.1258297,49.2723686],[-123.1258061,49.2724411],[-123.1257902,49.2725145],[-123.1257815,49.2726069],[-123.1257925,49.2728594],[-123.1257458,49.2728879],[-123.1255563,49.2728807],[-123.1253219,49.2728854],[-123.1251164,49.2729019],[-123.1249006,49.272932],[-123.1246381,49.2729877],[-123.1236084,49.2732585],[-123.1225135,49.2725494]]]}},{"type":"Feature","properties":{"name":"Coal Harbour Park","class":"Neighbourhood","source":"cov-parks"},"geometry":{"type":"Polygon","coordinates":[[[-123.1239342,49.2902049],[-123.1248934,49.289571],[-123.1249708,49.2895615],[-123.125203,49.2896293],[-123.125602,49.2897306],[-123.1260483,49.2898609],[-123.1255359,49.2902001],[-123.1255199,49.2904329],[-123.1252754,49.2904356],[-123.1251372,49.2904459],[-123.1250005,49.2904625],[-123.1248659,49.2904853],[-123.124734,49.2905141],[-123.1245118,49.2905789],[-123.1239342,49.2902049]]]}},{"type":"Feature","properties":{"name":"Cathedral Square","class":"Urban Plaza","source":"cov-parks"},"geometry":{"type":"Polygon","coordinates":[[[-123.1135177,49.2828436],[-123.1131603,49.2826123],[-123.1138674,49.2821443],[-123.1142249,49.2823757],[-123.1135177,49.2828436]]]}},{"type":"Feature","properties":{"name":"Park Site on Jervis St. @ Pacific St","class":"Local","source":"cov-parks"},"geometry":{"type":"Polygon","coordinates":[[[-123.1382633,49.2806975],[-123.1384241,49.2805935],[-123.138939,49.2810906],[-123.1389179,49.2811014],[-123.1382633,49.2806975]]]}},{"type":"Feature","properties":{"name":"Triangle Park","class":"Urban Plaza","source":"cov-parks"},"geometry":{"type":"Polygon","coordinates":[[[-123.1079152,49.2722128],[-123.1079399,49.2717824],[-123.1079749,49.2717839],[-123.1081671,49.2722186],[-123.1079152,49.2722128]]]}},{"type":"Feature","properties":{"name":"West End minipark - GILFORD ST @ HARO ST","class":"Local","source":"cov-parks"},"geometry":{"type":"MultiPolygon","coordinates":[[[[-123.137874,49.291792],[-123.138071,49.291919],[-123.137685,49.292174],[-123.137489,49.292047],[-123.137874,49.291792]]],[[[-123.138454,49.291408],[-123.138651,49.291535],[-123.138265,49.29179],[-123.138069,49.291663],[-123.138454,49.291408]]]]}},{"type":"Feature","properties":{"name":"West End minipark - NICOLA ST @ PENDRELL ST","class":"Local","source":"cov-parks"},"geometry":{"type":"Polygon","coordinates":[[[-123.136422,49.28503],[-123.136807,49.284775],[-123.137004,49.284902],[-123.136618,49.285157],[-123.136422,49.28503]]]}},{"type":"Feature","properties":{"name":"Park","class":"Urban Plaza","source":"cov-parks"},"geometry":{"type":"Polygon","coordinates":[[[-123.1061326,49.2714647],[-123.1061533,49.2709793],[-123.1065379,49.2709864],[-123.1065172,49.2714717],[-123.1061326,49.2714647]]]}},{"type":"Feature","properties":{"name":"English Bay Beach Park","class":"Community","source":"cov-parks"},"geometry":{"type":"Polygon","coordinates":[[[-123.1429436,49.2884925],[-123.1425939,49.2881093],[-123.1424882,49.287012],[-123.14298,49.2845494],[-123.1420491,49.2831069],[-123.139494,49.281453],[-123.1384,49.2803754],[-123.1373263,49.2793038],[-123.1374323,49.2792158],[-123.1381829,49.2787188],[-123.1382895,49.2786552],[-123.138344,49.278769],[-123.13839,49.278808],[-123.138437,49.278838],[-123.1385571,49.278886],[-123.13865,49.278882],[-123.138796,49.278803],[-123.138929,49.278794],[-123.139115,49.278816],[-123.139181,49.278837],[-123.139381,49.278859],[-123.139447,49.278876],[-123.139447,49.278889],[-123.139401,49.278924],[-123.139348,49.278985],[-123.139342,49.279202],[-123.139309,49.279363],[-123.139343,49.279459],[-123.139376,49.279594],[-123.139436,49.279654],[-123.13947,49.279707],[-123.139569,49.279737],[-123.139662,49.279737],[-123.139735,49.279667],[-123.139795,49.279658],[-123.139881,49.279658],[-123.140034,49.279667],[-123.140174,49.279693],[-123.140048,49.279854],[-123.140015,49.280019],[-123.139983,49.280149],[-123.139963,49.280284],[-123.1399969,49.280397],[-123.14001,49.28051],[-123.140037,49.280615],[-123.140104,49.280749],[-123.140404,49.280966],[-123.1406829,49.281144],[-123.140763,49.281183],[-123.140849,49.281201],[-123.140962,49.281196],[-123.141029,49.281166],[-123.141095,49.281122],[-123.141148,49.281096],[-123.141181,49.281074],[-123.1412011,49.281135],[-123.141188,49.281183],[-123.1410561,49.281296],[-123.140996,49.281313],[-123.141109,49.2814],[-123.141335,49.281513],[-123.141529,49.281704],[-123.141703,49.28206],[-123.141856,49.282273],[-123.142196,49.282651],[-123.142303,49.282794],[-123.142376,49.282951],[-123.142597,49.283307],[-123.14271,49.283476],[-123.14285,49.283637],[-123.142964,49.283759],[-123.14311,49.283933],[-123.143184,49.284006],[-123.143356,49.284041],[-123.143543,49.284106],[-123.143742,49.284167],[-123.143948,49.284197],[-123.144101,49.284249],[-123.144161,49.284309],[-123.144168,49.284379],[-123.144142,49.284436],[-123.144082,49.284479],[-123.144016,49.284492],[-123.143949,49.284492],[-123.143923,49.284601],[-123.143904,49.284784],[-123.143852,49.285149],[-123.1436031,49.28641],[-123.143479,49.287223],[-123.143459,49.287476],[-123.1434601,49.287771],[-123.143481,49.287945],[-123.143509,49.288358],[-123.143522,49.288471],[-123.143549,49.288554],[-123.143616,49.288571],[-123.1436951,49.28861],[-123.143762,49.288632],[-123.143895,49.288753],[-123.143922,49.28881],[-123.143955,49.288849],[-123.144029,49.288897],[-123.144142,49.28894],[-123.144295,49.289035],[-123.144541,49.289196],[-123.144655,49.289291],[-123.144741,49.289317],[-123.144807,49.289317],[-123.144861,49.289326],[-123.144927,49.289356],[-123.1450741,49.289391],[-123.145153,49.289391],[-123.145213,49.289382],[-123.145286,49.289382],[-123.145346,49.289404],[-123.145366,49.289425],[-123.145373,49.289443],[-123.145553,49.28956],[-123.145732,49.289668],[-123.145806,49.28972],[-123.1458921,49.289764],[-123.145912,49.289807],[-123.145999,49.289872],[-123.1461191,49.28995],[-123.1461742,49.2899793],[-123.1457124,49.2902877],[-123.1429436,49.2884925]]]}},{"type":"Feature","properties":{"name":"Cardero Park","class":"Local","source":"cov-parks"},"geometry":{"type":"Polygon","coordinates":[[[-123.1274944,49.2926232],[-123.1272471,49.2927871],[-123.1271916,49.2927512],[-123.1284842,49.2918946],[-123.1287747,49.2920821],[-123.1278066,49.2927236],[-123.1274944,49.2926232]]]}},{"type":"Feature","properties":{"name":"Granville Island Water Park","class":"Community","source":"cov-parks"},"geometry":{"type":"Polygon","coordinates":[[[-123.1347865,49.2697386],[-123.1347474,49.2697604],[-123.1344716,49.2697031],[-123.134593,49.2694247],[-123.1345709,49.2693978],[-123.1346377,49.2692582],[-123.1346908,49.2691764],[-123.1349848,49.2693059],[-123.1354142,49.2695538],[-123.1351642,49.2697442],[-123.1350335,49.2697476],[-123.1350066,49.2697428],[-123.1349972,49.2697646],[-123.1348403,49.2697334],[-123.1347865,49.2697386]]]}},{"type":"Feature","properties":{"name":"Devonian Harbour Park","class":"Neighbourhood","source":"cov-parks"},"geometry":{"type":"Polygon","coordinates":[[[-123.1361011,49.2949764],[-123.1360929,49.2949661],[-123.1360718,49.2947894],[-123.135528,49.2951498],[-123.1353154,49.2951139],[-123.134958,49.2952101],[-123.1348091,49.2952807],[-123.134732,49.2953033],[-123.1346109,49.2953203],[-123.1345099,49.2953134],[-123.1344638,49.2952995],[-123.1342881,49.2952197],[-123.1340724,49.2951305],[-123.1339676,49.295077],[-123.1338171,49.2949913],[-123.133742,49.2949233],[-123.1336739,49.2948333],[-123.1335964,49.2948831],[-123.1335715,49.2948741],[-123.1335058,49.2947846],[-123.1335248,49.2946766],[-123.1337202,49.2945452],[-123.1337389,49.2944945],[-123.1336555,49.2943893],[-123.1331996,49.2941815],[-123.1327297,49.2939283],[-123.1325244,49.2937157],[-123.1323877,49.293625],[-123.1336609,49.2927814],[-123.1364141,49.2945626],[-123.1364495,49.2945392],[-123.1366125,49.2946443],[-123.1361307,49.294971],[-123.1361163,49.2949773],[-123.1361011,49.2949764]]]}},{"type":"Feature","properties":{"name":"Sunset Beach Park","class":"Community","source":"cov-parks"},"geometry":{"type":"Polygon","coordinates":[[[-123.1381829,49.2787188],[-123.1374323,49.2792158],[-123.1373263,49.2793038],[-123.1346788,49.2766651],[-123.1351757,49.2763356],[-123.1351354,49.2762958],[-123.1361393,49.2759718],[-123.136037,49.276055],[-123.1359911,49.276138],[-123.135958,49.276225],[-123.135985,49.276294],[-123.136031,49.276368],[-123.136091,49.276442],[-123.136138,49.276494],[-123.136231,49.276568],[-123.136305,49.276659],[-123.136472,49.276981],[-123.136545,49.277041],[-123.136598,49.277102],[-123.1367579,49.277237],[-123.136845,49.277363],[-123.136931,49.27745],[-123.136985,49.277519],[-123.137091,49.27761],[-123.137158,49.277688],[-123.137258,49.27774],[-123.137338,49.277775],[-123.13759,49.277818],[-123.137697,49.277818],[-123.137783,49.277766],[-123.137862,49.277731],[-123.137969,49.27774],[-123.138055,49.277761],[-123.138341,49.277883],[-123.138341,49.277952],[-123.138322,49.278017],[-123.1382689,49.278104],[-123.138229,49.278157],[-123.138203,49.278239],[-123.138203,49.278474],[-123.138257,49.2786],[-123.1382895,49.2786552],[-123.1381829,49.2787188]]]}},{"type":"Feature","properties":{"name":"Oppenheimer Park","class":"Neighbourhood","source":"cov-parks"},"geometry":{"type":"Polygon","coordinates":[[[-123.095,49.2830138],[-123.095,49.2822904],[-123.0951994,49.2822941],[-123.0951692,49.2830169],[-123.095,49.2830138]]]}},{"type":"Feature","properties":{"name":"Thornton Park","class":"Neighbourhood","source":"cov-parks"},"geometry":{"type":"MultiPolygon","coordinates":[[[[-123.098629,49.2750105],[-123.0988847,49.2750152],[-123.0988709,49.2753359],[-123.0986158,49.275293],[-123.098629,49.2750105]]],[[[-123.0989509,49.2731208],[-123.0989549,49.2730295],[-123.099804,49.2731727],[-123.0997304,49.2748063],[-123.0986835,49.2747865],[-123.0987578,49.2731174],[-123.0989509,49.2731208]]]]}},{"type":"Feature","properties":{"name":"Charleson Park","class":"Community","source":"cov-parks"},"geometry":{"type":"Polygon","coordinates":[[[-123.1218852,49.2681153],[-123.122433,49.2678493],[-123.1221804,49.2674093],[-123.1226765,49.267],[-123.1262585,49.267],[-123.1262448,49.267073],[-123.1262313,49.2674387],[-123.1268476,49.2676602],[-123.1275477,49.2675398],[-123.1276908,49.2676143],[-123.1276693,49.2681612],[-123.1257629,49.26813],[-123.1255393,49.2680291],[-123.1253512,49.2678476],[-123.1252712,49.2678065],[-123.1250977,49.2677373],[-123.124934,49.2676909],[-123.1247857,49.267665],[-123.1246212,49.2676549],[-123.1244659,49.2676625],[-123.1243425,49.2676807],[-123.1242619,49.2677061],[-123.1241548,49.2677589],[-123.1240694,49.2678269],[-123.1238775,49.2683236],[-123.1233906,49.2681883],[-123.1226808,49.2682804],[-123.1220831,49.2686228],[-123.121568,49.2685583],[-123.1215172,49.2685774],[-123.1214289,49.2685358],[-123.1213501,49.2684867],[-123.1213053,49.2684514],[-123.1212842,49.2684323],[-123.1212489,49.2683809],[-123.121231,49.2683479],[-123.1212034,49.2682755],[-123.1211865,49.2682183],[-123.1211648,49.2681027],[-123.1218852,49.2681153]]]}},{"type":"Feature","properties":{"name":"Sutcliffe Park","class":"Community","source":"cov-parks"},"geometry":{"type":"Polygon","coordinates":[[[-123.1337439,49.2697156],[-123.1335011,49.2696734],[-123.1336321,49.2693506],[-123.1331262,49.2692563],[-123.1332411,49.2689402],[-123.1339945,49.2690784],[-123.1340013,49.2690758],[-123.134128,49.268789],[-123.1340811,49.268722],[-123.134096,49.268665],[-123.1342149,49.26865],[-123.134238,49.268608],[-123.134198,49.268531],[-123.134151,49.268469],[-123.134072,49.268423],[-123.133961,49.268371],[-123.133788,49.26833],[-123.133693,49.268325],[-123.133661,49.268335],[-123.133583,49.268392],[-123.133527,49.268418],[-123.133417,49.268413],[-123.1334063,49.2683885],[-123.1334062,49.2683745],[-123.1332703,49.2681827],[-123.1332733,49.2679893],[-123.1334899,49.268047],[-123.1336883,49.2679465],[-123.1340611,49.2680463],[-123.134009,49.2681296],[-123.13428,49.2682022],[-123.1342622,49.2682296],[-123.1351976,49.2684799],[-123.135593,49.2688006],[-123.1356847,49.2691599],[-123.1360743,49.2691171],[-123.1360847,49.2691581],[-123.1364173,49.2691217],[-123.136468,49.269087],[-123.1368142,49.2688195],[-123.1368477,49.2689507],[-123.1372971,49.2689016],[-123.1373287,49.2689803],[-123.1366762,49.2690516],[-123.1366398,49.2690791],[-123.1366864,49.2692603],[-123.1365304,49.2692776],[-123.136636,49.2696889],[-123.1369672,49.2696526],[-123.1371269,49.2697564],[-123.1366295,49.2700916],[-123.1365895,49.2700381],[-123.136252,49.2697754],[-123.1358966,49.2700505],[-123.135531,49.2698326],[-123.1356957,49.269705],[-123.135599,49.269671],[-123.1355006,49.2695991],[-123.1354142,49.2695538],[-123.1349848,49.2693059],[-123.1346908,49.2691764],[-123.1346377,49.2692582],[-123.1345709,49.2693978],[-123.134593,49.2694247],[-123.1344716,49.2697031],[-123.1346277,49.2697355],[-123.1345759,49.2698604],[-123.1342293,49.2698002],[-123.1344043,49.2693701],[-123.1344742,49.2693831],[-123.1345642,49.2691723],[-123.1340054,49.2690802],[-123.1339986,49.2690829],[-123.1337439,49.2697156]]]}},{"type":"Feature","properties":{"name":"West End minipark - BUTE ST @ HARO ST","class":"Local","source":"cov-parks"},"geometry":{"type":"Polygon","coordinates":[[[-123.128238,49.2853],[-123.128042,49.285173],[-123.128429,49.284917],[-123.128624,49.285045],[-123.128238,49.2853]]]}},{"type":"Feature","properties":{"name":"West End minipark - CHILCO ST @ COMOX ST","class":"Local","source":"cov-parks"},"geometry":{"type":"Polygon","coordinates":[[[-123.142051,49.290826],[-123.142438,49.29057],[-123.142634,49.290697],[-123.142248,49.290953],[-123.142051,49.290826]]]}},{"type":"Feature","properties":{"name":"Victory Square","class":"Urban Plaza","source":"cov-parks"},"geometry":{"type":"Polygon","coordinates":[[[-123.1097901,49.2825149],[-123.109741,49.2823953],[-123.1100241,49.2817312],[-123.1101052,49.2817172],[-123.1107476,49.2821335],[-123.1099828,49.2826397],[-123.1097901,49.2825149]]]}},{"type":"Feature","properties":{"name":"George Wainborn Park","class":"Neighbourhood","source":"cov-parks"},"geometry":{"type":"Polygon","coordinates":[[[-123.1288428,49.2716697],[-123.1292175,49.2719121],[-123.1296461,49.2716285],[-123.1307164,49.2723211],[-123.130455,49.2724941],[-123.1307209,49.2726662],[-123.1297833,49.2732866],[-123.1297027,49.2732369],[-123.1296231,49.2732006],[-123.1295257,49.2731704],[-123.1294324,49.273153],[-123.1293253,49.2731452],[-123.1292284,49.2731486],[-123.1291439,49.27316],[-123.1289668,49.2731975],[-123.1288971,49.2732041],[-123.1288165,49.2732046],[-123.1287268,49.2731965],[-123.1286402,49.2731793],[-123.1285587,49.2731535],[-123.1284844,49.2731196],[-123.1284124,49.2730736],[-123.1283488,49.2730144],[-123.1283069,49.2729545],[-123.1282798,49.2728843],[-123.1282733,49.2728318],[-123.1282795,49.2727727],[-123.128294,49.2727276],[-123.1283331,49.2726467],[-123.1283493,49.2725769],[-123.1283456,49.2724994],[-123.1283226,49.2724305],[-123.1282816,49.2723652],[-123.1282305,49.2723113],[-123.1281821,49.2722734],[-123.1280551,49.2721908],[-123.1288428,49.2716697]]]}},{"type":"Feature","properties":{"name":"Andy Livingstone Park","class":"Community","source":"cov-parks"},"geometry":{"type":"MultiPolygon","coordinates":[[[[-123.1061867,49.2781763],[-123.1063297,49.2782135],[-123.1064691,49.2782563],[-123.1066042,49.2783044],[-123.1067297,49.2783554],[-123.1062862,49.2794036],[-123.1049982,49.2791975],[-123.1047087,49.2791609],[-123.1046584,49.2791114],[-123.1047257,49.2790104],[-123.1048105,49.2789154],[-123.1049116,49.2788273],[-123.1050278,49.2787476],[-123.1051238,49.278694],[-123.1052148,49.278651],[-123.105719,49.2784571],[-123.1058459,49.2784015],[-123.1059433,49.2783502],[-123.1060244,49.2783006],[-123.1061092,49.2782405],[-123.1061867,49.2781763]]],[[[-123.1031237,49.2776642],[-123.1033057,49.2776717],[-123.1034989,49.277695],[-123.1036732,49.2777305],[-123.1041375,49.2778535],[-123.1058772,49.2781162],[-123.1058862,49.2781343],[-123.1057756,49.2782069],[-123.1056647,49.2782652],[-123.1055817,49.2783014],[-123.1050649,49.2785002],[-123.1049302,49.278565],[-123.1048055,49.2786381],[-123.1046659,49.2787399],[-123.1045537,49.2788444],[-123.1044979,49.2789076],[-123.1044484,49.278973],[-123.1044007,49.279049],[-123.1043615,49.279127],[-123.1043265,49.2791464],[-123.1040543,49.2791652],[-123.1038847,49.2791684],[-123.1023165,49.279141],[-123.1022834,49.2791226],[-123.1022616,49.2790223],[-123.1022535,49.2789211],[-123.1022515,49.2783153],[-123.1022737,49.2777486],[-123.1023437,49.2776991],[-123.1031237,49.2776642]]]]}},{"type":"Feature","properties":{"name":"Nelson Park","class":"Community","source":"cov-parks"},"geometry":{"type":"Polygon","coordinates":[[[-123.1303671,49.2836144],[-123.1304222,49.2835485],[-123.1304595,49.2834875],[-123.1304895,49.2834148],[-123.1305039,49.2833498],[-123.1294998,49.2827001],[-123.1291718,49.2826973],[-123.1288487,49.2829112],[-123.1282026,49.2824933],[-123.1290715,49.281918],[-123.1310369,49.2831909],[-123.1303822,49.2836238],[-123.1303671,49.2836144]]]}},{"type":"Feature","properties":{"name":"Pocket Park","class":"Urban Plaza","source":"cov-parks"},"geometry":{"type":"Polygon","coordinates":[[[-123.1079259,49.270382],[-123.1079161,49.2706118],[-123.1075615,49.2706054],[-123.1075713,49.2703756],[-123.1079259,49.270382]]]}},{"type":"Feature","properties":{"name":"May & Lorne Brown Park","class":"Local","source":"cov-parks"},"geometry":{"type":"Polygon","coordinates":[[[-123.1318217,49.2748573],[-123.1321309,49.2750576],[-123.1325947,49.2753581],[-123.132288,49.2755609],[-123.1315148,49.2750603],[-123.1318217,49.2748573]]]}},{"type":"Feature","properties":{"name":"CRAB Park at Portside","class":"Community","source":"cov-parks"},"geometry":{"type":"Polygon","coordinates":[[[-123.103182,49.286264],[-123.103134,49.286217],[-123.1031021,49.286107],[-123.103102,49.286033],[-123.103117,49.28586],[-123.103117,49.285739],[-123.103101,49.285671],[-123.103044,49.285582],[-123.102972,49.285519],[-123.102859,49.285461],[-123.102723,49.285409],[-123.102434,49.285362],[-123.102177,49.285357],[-123.1019679,49.285388],[-123.101759,49.285409],[-123.101494,49.285457],[-123.1010369,49.285505],[-123.100804,49.285521],[-123.100322,49.285521],[-123.099889,49.285527],[-123.099535,49.285501],[-123.09931,49.285454],[-123.099167,49.2854],[-123.098892,49.285123],[-123.098884,49.284987],[-123.09906,49.284944],[-123.099149,49.28506],[-123.099237,49.285154],[-123.099342,49.285233],[-123.099527,49.285301],[-123.09976,49.285348],[-123.099977,49.285364],[-123.100201,49.285343],[-123.10037,49.285295],[-123.100538,49.285216],[-123.100683,49.285106],[-123.100819,49.284896],[-123.100859,49.284775],[-123.10089,49.284612],[-123.1009789,49.284533],[-123.1010911,49.284517],[-123.1013079,49.284512],[-123.103171,49.284552],[-123.103315,49.284568],[-123.10354,49.284604],[-123.1040704,49.2847641],[-123.1040152,49.2860554],[-123.1039512,49.2860655],[-123.103897,49.286122],[-123.103849,49.286222],[-123.103777,49.286311],[-123.103696,49.286343],[-123.10356,49.286374],[-123.103423,49.286364],[-123.103359,49.286348],[-123.103182,49.286264]]]}},{"type":"Feature","properties":{"name":"Barclay Heritage Square","class":"Neighbourhood","source":"cov-parks"},"geometry":{"type":"MultiPolygon","coordinates":[[[[-123.1320554,49.2866331],[-123.1322518,49.2867604],[-123.1319526,49.2869587],[-123.1317574,49.2868308],[-123.1320554,49.2866331]]],[[[-123.1317967,49.2871908],[-123.1314815,49.2873999],[-123.1311865,49.2872089],[-123.1312826,49.2871453],[-123.1314794,49.2872723],[-123.131524,49.287296],[-123.13181,49.2871073],[-123.1318918,49.2871603],[-123.1319872,49.2870947],[-123.131983,49.287092],[-123.1323742,49.2868397],[-123.1330376,49.2872697],[-123.1321693,49.2878455],[-123.1317762,49.2875908],[-123.1320949,49.2873794],[-123.1317967,49.2871908]]]]}},{"type":"Feature","properties":{"name":"Roundhouse Turntable Plaza","class":"Neighbourhood","source":"cov-parks"},"geometry":{"type":"Polygon","coordinates":[[[-123.122456,49.2727652],[-123.1221915,49.2729401],[-123.1225262,49.2734849],[-123.1222456,49.2735587],[-123.1222763,49.2736088],[-123.1213505,49.2738523],[-123.1208095,49.2735042],[-123.1209107,49.2734373],[-123.1208855,49.2734169],[-123.1208667,49.2733937],[-123.1208551,49.2733685],[-123.1208509,49.2733424],[-123.1208545,49.2733163],[-123.120867,49.2732888],[-123.1208859,49.2732657],[-123.1209112,49.2732453],[-123.1209771,49.2732158],[-123.1210588,49.2732045],[-123.1211373,49.2732141],[-123.1212052,49.2732426],[-123.122189,49.2725923],[-123.122456,49.2727652]]]}},{"type":"Feature","properties":{"name":"West End minipark - CARDERO ST @ BURNABY ST","class":"Local","source":"cov-parks"},"geometry":{"type":"Polygon","coordinates":[[[-123.139343,49.284898],[-123.139147,49.28477],[-123.139533,49.284515],[-123.139729,49.284642],[-123.139343,49.284898]]]}},{"type":"Feature","properties":{"name":"Sun Yat-sen Gardens Park","class":"Local","source":"cov-parks"},"geometry":{"type":"Polygon","coordinates":[[[-123.1035396,49.2798517],[-123.1035334,49.2801275],[-123.1032256,49.2801161],[-123.1032384,49.2798433],[-123.1029796,49.2798362],[-123.102973,49.279732],[-123.1027469,49.279733],[-123.102747,49.279666],[-123.1024702,49.279663],[-123.1024856,49.2793059],[-123.1028165,49.2792847],[-123.1041836,49.2793087],[-123.1042965,49.2793596],[-123.1042758,49.279863],[-123.1035396,49.2798517]]]}},{"type":"Feature","properties":{"name":"Granville Loop Park","class":"Neighbourhood","source":"cov-parks"},"geometry":{"type":"Polygon","coordinates":[[[-123.138141,49.267742],[-123.137722,49.267738],[-123.137578,49.267729],[-123.137426,49.267707],[-123.1373159,49.267684],[-123.137179,49.267635],[-123.137062,49.267572],[-123.13691,49.267482],[-123.136445,49.267165],[-123.13639,49.267111],[-123.1363083,49.267],[-123.1381452,49.267],[-123.138141,49.267742]]]}},{"type":"Feature","properties":{"name":"Morton Park","class":"Local","source":"cov-parks"},"geometry":{"type":"MultiPolygon","coordinates":[[[[-123.1422108,49.2871163],[-123.1422211,49.2871189],[-123.1422494,49.2874113],[-123.1420049,49.2872528],[-123.1422108,49.2871163]]],[[[-123.1418107,49.2873816],[-123.1422757,49.2876824],[-123.1423147,49.2880854],[-123.1415225,49.2875727],[-123.1418107,49.2873816]]]]}},{"type":"Feature","properties":{"name":"Portal Park","class":"Urban Plaza","source":"cov-parks"},"geometry":{"type":"Polygon","coordinates":[[[-123.118892,49.2880626],[-123.1190585,49.2878197],[-123.1195454,49.2879625],[-123.1192173,49.2881791],[-123.118892,49.2880626]]]}},{"type":"Feature","properties":{"name":"Seaforth Peace Park","class":"Neighbourhood","source":"cov-parks"},"geometry":{"type":"Polygon","coordinates":[[[-123.1463143,49.2723018],[-123.1461081,49.2722985],[-123.1456818,49.272301],[-123.1457408,49.2707523],[-123.1463792,49.2707653],[-123.1463143,49.2723018]]]}},{"type":"Feature","properties":{"name":"West End minipark - JERVIS ST @ BURNABY ST","class":"Local","source":"cov-parks"},"geometry":{"type":"Polygon","coordinates":[[[-123.135994,49.281969],[-123.1363789,49.281714],[-123.136576,49.281841],[-123.13619,49.282096],[-123.135994,49.281969]]]}},{"type":"Feature","properties":{"name":"Marina Square","class":"Neighbourhood","source":"cov-parks"},"geometry":{"type":"Polygon","coordinates":[[[-123.1312796,49.2930884],[-123.1307752,49.292762],[-123.1306785,49.292826],[-123.1305806,49.2927626],[-123.1306368,49.292293],[-123.1311839,49.2919305],[-123.1312214,49.29193],[-123.1318129,49.2923127],[-123.1314557,49.2925494],[-123.1313821,49.2930206],[-123.1312796,49.2930884]]]}},{"type":"Feature","properties":{"name":"Helmcken Park","class":"Urban Plaza","source":"cov-parks"},"geometry":{"type":"Polygon","coordinates":[[[-123.119984,49.2753403],[-123.1193288,49.2749156],[-123.1193941,49.2748148],[-123.1194463,49.2746995],[-123.1194558,49.2746888],[-123.1194724,49.2746824],[-123.1196245,49.2746591],[-123.119784,49.2747621],[-123.119635,49.2748603],[-123.1201783,49.2752119],[-123.119984,49.2753403]]]}},{"type":"Feature","properties":{"name":"Coopers' Park","class":"Community","source":"cov-parks"},"geometry":{"type":"Polygon","coordinates":[[[-123.1130615,49.2738213],[-123.1126943,49.2739893],[-123.1126277,49.2739546],[-123.1125462,49.2739366],[-123.1124601,49.2739379],[-123.1123799,49.2739584],[-123.112115,49.2736556],[-123.1130288,49.2732171],[-123.1131755,49.2731588],[-123.1133332,49.2731144],[-123.1134988,49.2730848],[-123.1136691,49.2730705],[-123.1138534,49.2730727],[-123.1145646,49.2727302],[-123.1149982,49.2726683],[-123.116166,49.2726765],[-123.1164162,49.2728756],[-123.1165532,49.2729709],[-123.1166717,49.2730412],[-123.1167653,49.2730903],[-123.1169636,49.2731786],[-123.1169243,49.2732211],[-123.1168372,49.2731907],[-123.1167479,49.2731671],[-123.1166552,49.2731497],[-123.1165443,49.2731376],[-123.1164908,49.2730982],[-123.1156198,49.2730994],[-123.1155734,49.2731271],[-123.115412,49.2731463],[-123.1152514,49.2731847],[-123.1151176,49.2732345],[-123.1150099,49.2732898],[-123.1144832,49.2732986],[-123.1143727,49.2732934],[-123.114254,49.2733043],[-123.1141708,49.2733228],[-123.1140932,49.2733498],[-123.1135467,49.2735994],[-123.1137916,49.2738292],[-123.1133058,49.2740501],[-123.1130615,49.2738213]]]}},{"type":"Feature","properties":{"name":"5th and Pine","class":"Local","source":"cov-parks"},"geometry":{"type":"Polygon","coordinates":[[[-123.1427076,49.267],[-123.1431264,49.267],[-123.1431261,49.2670085],[-123.1427076,49.267]]]}},{"type":"Feature","properties":{"name":"Habitat Island Park","class":"Community","source":"cov-parks"},"geometry":{"type":"Polygon","coordinates":[[[-123.1116421,49.2718612],[-123.1113564,49.2719148],[-123.1113417,49.2718757],[-123.1112497,49.2719043],[-123.1112152,49.2719387],[-123.1112021,49.2719683],[-123.1112008,49.2719992],[-123.1112114,49.2720293],[-123.1112334,49.2720566],[-123.1112536,49.2720724],[-123.1113193,49.2721003],[-123.1114528,49.2721188],[-123.1115767,49.2721563],[-123.1115835,49.2721675],[-123.1115824,49.2721795],[-123.1115738,49.2721901],[-123.1115592,49.2721974],[-123.1107723,49.2724165],[-123.1107209,49.2724238],[-123.1106162,49.2724304],[-123.1101426,49.2724252],[-123.1100864,49.2724063],[-123.1100657,49.2723904],[-123.1100489,49.2723649],[-123.1100456,49.2723442],[-123.1100505,49.2723236],[-123.1100812,49.2722856],[-123.1101562,49.2722152],[-123.1102476,49.2721537],[-123.110353,49.2721026],[-123.1104696,49.2720634],[-123.1105944,49.272037],[-123.1107475,49.2720246],[-123.1108287,49.272001],[-123.1108635,49.2719827],[-123.1109055,49.2719487],[-123.1109328,49.2719088],[-123.1109436,49.2718702],[-123.1109431,49.2718502],[-123.1109328,49.2718209],[-123.1109199,49.2718027],[-123.1108922,49.2717786],[-123.1108288,49.2717509],[-123.1107843,49.2717434],[-123.1107383,49.2717434],[-123.1105607,49.2717693],[-123.110473,49.2718312],[-123.1104235,49.2718582],[-123.1103149,49.2719037],[-123.1102567,49.2719218],[-123.1101341,49.2719481],[-123.1100708,49.2719561],[-123.1100471,49.2719455],[-123.110043,49.2719347],[-123.1100486,49.2719204],[-123.1101287,49.2718452],[-123.1101779,49.2718112],[-123.110266,49.2717712],[-123.1103665,49.2717465],[-123.1104372,49.2717394],[-123.1105309,49.2717384],[-123.1106218,49.2717238],[-123.1108708,49.2716642],[-123.1109434,49.2716402],[-123.1110089,49.2716086],[-123.1110913,49.2715914],[-123.1112203,49.2715835],[-123.1113326,49.2715919],[-123.1113854,49.2715913],[-123.111539,49.2715695],[-123.1116421,49.2718612]]]}},{"type":"Feature","properties":{"name":"Park Site On South East False Creek (Hinge Park)","class":"Community","source":"cov-parks"},"geometry":{"type":"Polygon","coordinates":[[[-123.1104082,49.2705984],[-123.1105297,49.2705654],[-123.1108096,49.270958],[-123.1109424,49.2709214],[-123.1112753,49.2713875],[-123.1112169,49.2714053],[-123.1111912,49.2714446],[-123.1111615,49.2715365],[-123.1110187,49.2715481],[-123.1108515,49.2715786],[-123.1105867,49.2716428],[-123.1102831,49.2716566],[-123.1101083,49.2717174],[-123.1100159,49.2717898],[-123.1096847,49.2721184],[-123.1095819,49.2721691],[-123.1094919,49.2721893],[-123.1093946,49.2721881],[-123.1094212,49.2715235],[-123.1101682,49.2715383],[-123.1101889,49.2710529],[-123.1095021,49.2710404],[-123.1095285,49.27042],[-123.1097002,49.2704146],[-123.1098944,49.2703873],[-123.1099587,49.2703708],[-123.1100525,49.2703386],[-123.1101815,49.2702781],[-123.1104082,49.2705984]]]}},{"type":"Feature","properties":{"name":"Park Site on Point Grey at Trafalgar","class":"Local","source":"cov-parks"},"geometry":{"type":"Polygon","coordinates":[[[-123.1649434,49.2733682],[-123.165,49.2733931],[-123.165,49.2734391],[-123.1649788,49.273451],[-123.1644599,49.2738407],[-123.1643095,49.2738766],[-123.164182,49.2738827],[-123.1641903,49.2736361],[-123.1644731,49.2734683],[-123.1644893,49.2730105],[-123.1646192,49.2729587],[-123.1649591,49.2733188],[-123.1649434,49.2733682]]]}},{"type":"Feature","properties":{"name":"Vanier Park (Cultural Harmony Grove)","class":"Neighbourhood","source":"cov-parks"},"geometry":{"type":"Polygon","coordinates":[[[-123.138601,49.274307],[-123.1394193,49.2741554],[-123.139429,49.274181],[-123.139451,49.274284],[-123.1395451,49.274494],[-123.138766,49.274734],[-123.138536,49.274453],[-123.138508,49.274332],[-123.138601,49.274307]]]}},{"type":"Feature","properties":{"name":"Downtown Skateboard Plaza","class":"Urban Plaza","source":"cov-parks"},"geometry":{"type":"Polygon","coordinates":[[[-123.1023328,49.2775412],[-123.1023003,49.2775344],[-123.1022793,49.2775247],[-123.1022587,49.2775069],[-123.1022486,49.2774856],[-123.1022463,49.2769009],[-123.1022539,49.2768331],[-123.1022767,49.2767667],[-123.102353,49.276844],[-123.102506,49.277031],[-123.102658,49.277174],[-123.103039,49.277411],[-123.103221,49.277516],[-123.1033114,49.277556],[-123.1033184,49.2775658],[-123.1033139,49.2775732],[-123.1032222,49.2775627],[-123.1031229,49.2775361],[-123.1030608,49.277529],[-123.1023328,49.2775412]]]}},{"type":"Feature","properties":{"name":"West End minipark - CARDERO ST @ COMOX ST","class":"Local","source":"cov-parks"},"geometry":{"type":"Polygon","coordinates":[[[-123.137125,49.286369],[-123.1367359,49.286626],[-123.136539,49.286498],[-123.136924,49.286243],[-123.137125,49.286369]]]}},{"type":"Feature","properties":{"name":"West End minipark - BROUGHTON ST @ NELSON ST","class":"Local","source":"cov-parks"},"geometry":{"type":"Polygon","coordinates":[[[-123.133117,49.285674],[-123.133502,49.285419],[-123.133699,49.285546],[-123.133314,49.285801],[-123.133117,49.285674]]]}},{"type":"Feature","properties":{"name":"Stanley Park","class":"Destination","source":"cov-parks"},"geometry":{"type":"Polygon","coordinates":[[[-123.1355285,49.2952978],[-123.1354514,49.2952711],[-123.1353582,49.2952619],[-123.1360718,49.2947894],[-123.1360929,49.2949661],[-123.1361011,49.2949764],[-123.1361163,49.2949773],[-123.1361307,49.294971],[-123.1366125,49.2946443],[-123.1366313,49.2946559],[-123.1377089,49.2939846],[-123.1382388,49.2936336],[-123.1415626,49.2930822],[-123.1462106,49.2899792],[-123.1462926,49.2899845],[-123.1463138,49.2899322],[-123.1465764,49.2897663],[-123.1467268,49.2898006],[-123.1469323,49.2898652],[-123.1470542,49.289865],[-123.1471465,49.289817],[-123.1473101,49.2897097],[-123.1473573,49.2896893],[-123.1474197,49.2896803],[-123.1474549,49.2896998],[-123.1474184,49.2897236],[-123.1473784,49.2897651],[-123.1473158,49.289801],[-123.1472808,49.2898575],[-123.1472809,49.289883],[-123.1475011,49.2901489],[-123.1478819,49.2904993],[-123.1483737,49.2909017],[-123.1486601,49.2911267],[-123.1486996,49.2911472],[-123.1487636,49.2911971],[-123.1487715,49.2912151],[-123.1488147,49.2912355],[-123.1488266,49.2912585],[-123.1488971,49.2913378],[-123.148913,49.2913685],[-123.14896,49.2913915],[-123.1489836,49.2914093],[-123.149011,49.2914196],[-123.149058,49.2914221],[-123.1491326,49.2914373],[-123.1491442,49.2914604],[-123.1491364,49.2914732],[-123.1491404,49.2914885],[-123.1491288,49.2915064],[-123.1491053,49.2915244],[-123.1491053,49.2915372],[-123.1491212,49.2915654],[-123.149133,49.291573],[-123.1491642,49.2915756],[-123.1492033,49.2915704],[-123.1492309,49.2915729],[-123.1492504,49.2915831],[-123.1492934,49.2915882],[-123.1493288,49.2915984],[-123.1493954,49.291629],[-123.1494346,49.2916546],[-123.1494543,49.2916546],[-123.1494974,49.2917006],[-123.1495454,49.2917119],[-123.1495846,49.2917349],[-123.1496317,49.2917502],[-123.1496435,49.291763],[-123.1496906,49.2917886],[-123.149726,49.2918372],[-123.1497535,49.2918653],[-123.1497653,49.2919037],[-123.1497732,49.2919138],[-123.1497968,49.2919266],[-123.1498282,49.2919522],[-123.1498713,49.2920007],[-123.1499262,49.2920135],[-123.1500086,49.2920543],[-123.1500204,49.29208],[-123.1500519,49.2921004],[-123.150103,49.2921515],[-123.1501382,49.2921771],[-123.1501971,49.2922052],[-123.1502675,49.2922281],[-123.1502793,49.2922357],[-123.1503385,49.2922188],[-123.1503582,49.292229],[-123.1503817,49.2922571],[-123.1504014,49.2922699],[-123.1504405,49.2922622],[-123.150464,49.2922494],[-123.1504993,49.2922544],[-123.1505072,49.2922749],[-123.150515,49.2922826],[-123.1505816,49.292326],[-123.1505896,49.2923362],[-123.1505935,49.2923567],[-123.1505779,49.2923747],[-123.1505624,49.2923823],[-123.1505388,49.2923901],[-123.1504957,49.2923953],[-123.1504331,49.2924209],[-123.1504293,49.2924696],[-123.1504726,49.2925258],[-123.150508,49.2925463],[-123.1505668,49.292559],[-123.1506021,49.2925743],[-123.1506414,49.2926357],[-123.1506963,49.2926638],[-123.1508648,49.2926738],[-123.1509079,49.2926636],[-123.1509789,49.2926617],[-123.151018,49.2926745],[-123.1510808,49.2927128],[-123.1511868,49.2928305],[-123.1512339,49.2928918],[-123.1512458,49.2929147],[-123.1512657,49.2929609],[-123.1512853,49.2930274],[-123.1512893,49.2930658],[-123.1513247,49.2931226],[-123.1513327,49.2931789],[-123.1513249,49.2932096],[-123.1512745,49.2933019],[-123.1512628,49.2933095],[-123.1512275,49.2933556],[-123.1511806,49.293389],[-123.1509654,49.2934201],[-123.150891,49.2934406],[-123.1508479,49.2934637],[-123.1508169,49.2934996],[-123.1508129,49.2935072],[-123.150813,49.2935329],[-123.1508603,49.2936326],[-123.1508603,49.2936634],[-123.1508683,49.2936787],[-123.1508801,49.2937402],[-123.1508999,49.293799],[-123.1509,49.2938221],[-123.1509283,49.2939083],[-123.1509639,49.2939569],[-123.1510266,49.294008],[-123.1511171,49.2941206],[-123.151294,49.2943149],[-123.1513529,49.2943711],[-123.1513804,49.2944198],[-123.1513883,49.2944453],[-123.1514275,49.2944709],[-123.1514393,49.2944964],[-123.1514395,49.2945349],[-123.1514318,49.2945784],[-123.1514201,49.2946116],[-123.1513812,49.294686],[-123.1513862,49.2947471],[-123.1516267,49.2948038],[-123.1517795,49.2948227],[-123.151947,49.2948796],[-123.1520199,49.2948985],[-123.1520854,49.2949364],[-123.1522674,49.2949552],[-123.1523838,49.2949836],[-123.1524348,49.2950026],[-123.1524857,49.2950073],[-123.1525003,49.2949977],[-123.152522,49.2949549],[-123.1525582,49.2949073],[-123.1525582,49.2948835],[-123.1525944,49.294874],[-123.1526528,49.2948882],[-123.1526966,49.2949071],[-123.1527186,49.2949499],[-123.1527042,49.2950213],[-123.1527043,49.2950451],[-123.1526898,49.2950689],[-123.1526899,49.2950974],[-123.1527045,49.2951307],[-123.1527192,49.2951496],[-123.1527556,49.2951829],[-123.1527776,49.2952161],[-123.1528214,49.2952588],[-123.1528797,49.2953016],[-123.1529474,49.2953369],[-123.1530204,49.2953844],[-123.1530567,49.2953986],[-123.1531441,49.2954175],[-123.1533698,49.295422],[-123.1534718,49.2954314],[-123.1535227,49.2954408],[-123.1535738,49.2954788],[-123.1536975,49.2955119],[-123.1537412,49.2955166],[-123.1538138,49.2954975],[-123.153872,49.2954879],[-123.1539448,49.2954925],[-123.154003,49.2955115],[-123.154054,49.2955447],[-123.1540832,49.2955542],[-123.1541196,49.2955494],[-123.1541413,49.2955256],[-123.1542067,49.2955065],[-123.1542358,49.2955064],[-123.154345,49.2955254],[-123.1543817,49.2955491],[-123.1544037,49.2956298],[-123.1544403,49.2957011],[-123.1544405,49.2957629],[-123.154426,49.2957916],[-123.154419,49.2958676],[-123.1543984,49.2959364],[-123.1543839,49.295965],[-123.1543912,49.2959887],[-123.1544204,49.2960125],[-123.1544787,49.2960267],[-123.1545443,49.296098],[-123.1545664,49.2961503],[-123.1545084,49.2962121],[-123.1543558,49.2962695],[-123.1543267,49.2962932],[-123.1543124,49.2963503],[-123.1543126,49.2964074],[-123.1542981,49.2964454],[-123.1543129,49.2965168],[-123.154342,49.2965501],[-123.1543858,49.2965738],[-123.1544223,49.2966071],[-123.1544587,49.2966023],[-123.1544876,49.2965737],[-123.1545384,49.2965355],[-123.154582,49.2965165],[-123.1546402,49.2965212],[-123.1546767,49.2965496],[-123.1546768,49.2965829],[-123.1546334,49.2966496],[-123.1545971,49.2966782],[-123.1545609,49.2967258],[-123.1545828,49.296759],[-123.1546265,49.2967827],[-123.1546775,49.2967922],[-123.1547793,49.296792],[-123.1548302,49.2967824],[-123.1548665,49.2967539],[-123.1548882,49.2967253],[-123.1549391,49.2967062],[-123.1550919,49.2967203],[-123.1551575,49.2967487],[-123.1552087,49.2967962],[-123.1552016,49.2968438],[-123.155209,49.2968818],[-123.1552528,49.2969389],[-123.1552966,49.2969816],[-123.1553511,49.2970247],[-123.1554166,49.2970484],[-123.1555841,49.2971291],[-123.1558537,49.2971572],[-123.1559991,49.2971571],[-123.1561592,49.2971473],[-123.1562464,49.2971282],[-123.1563408,49.2970995],[-123.1563991,49.2970899],[-123.1564354,49.2970756],[-123.1565154,49.2970612],[-123.156559,49.2970468],[-123.1568574,49.2970464],[-123.1569083,49.2970559],[-123.1569448,49.2970797],[-123.1569885,49.2970938],[-123.1570687,49.2971365],[-123.1571197,49.2971412],[-123.1571707,49.297184],[-123.1572071,49.297203],[-123.1572581,49.2972172],[-123.1572873,49.2972505],[-123.1573237,49.2972599],[-123.1573894,49.2973216],[-123.1573822,49.2973597],[-123.1573968,49.2973835],[-123.1574406,49.2974072],[-123.1574842,49.2974024],[-123.1574987,49.297388],[-123.1575351,49.2973738],[-123.1576319,49.2973994],[-123.1576611,49.2974184],[-123.1577193,49.2974326],[-123.1577558,49.2974563],[-123.1578068,49.2974801],[-123.1579523,49.2975226],[-123.1579888,49.297551],[-123.1580835,49.2975747],[-123.158149,49.2976127],[-123.1581856,49.2976602],[-123.1583315,49.2977266],[-123.158368,49.2977456],[-123.1584263,49.2977883],[-123.1584773,49.2978073],[-123.1585503,49.2978833],[-123.1585723,49.2979261],[-123.1585797,49.2979593],[-123.1586308,49.2980306],[-123.1586382,49.2980734],[-123.1586602,49.2981399],[-123.1587332,49.2981921],[-123.158755,49.2982207],[-123.1587771,49.2982635],[-123.1587626,49.2983111],[-123.1587628,49.2983918],[-123.1588221,49.2985176],[-123.158815,49.2985699],[-123.1588224,49.298608],[-123.1588736,49.2986222],[-123.1589099,49.2986126],[-123.1589464,49.2986601],[-123.1589905,49.298779],[-123.1590197,49.2988265],[-123.1590562,49.2988597],[-123.1590782,49.2988882],[-123.1591292,49.2989263],[-123.1592165,49.2989499],[-123.1592894,49.2989831],[-123.1593404,49.2989973],[-123.1593622,49.2990163],[-123.1593697,49.2990733],[-123.1593554,49.2991447],[-123.159341,49.2991827],[-123.1593265,49.2992065],[-123.1593051,49.2992748],[-123.1593488,49.2992938],[-123.1594143,49.2993032],[-123.1594508,49.2993269],[-123.1593636,49.2993699],[-123.1593419,49.2993984],[-123.1593274,49.2994317],[-123.1593425,49.2995792],[-123.1593863,49.2996219],[-123.1594227,49.2996456],[-123.1595974,49.2996549],[-123.1596119,49.2996692],[-123.159721,49.299669],[-123.1597866,49.2996594],[-123.1598521,49.2997021],[-123.159874,49.2997259],[-123.1598813,49.2997496],[-123.1599033,49.2997639],[-123.159947,49.2997781],[-123.159947,49.2997971],[-123.1599107,49.2998114],[-123.1597652,49.2998401],[-123.1596636,49.2998926],[-123.1594963,49.2999166],[-123.1593364,49.2999834],[-123.1593003,49.300031],[-123.1593005,49.3000881],[-123.1592787,49.3001358],[-123.1592644,49.3001881],[-123.1592647,49.3002974],[-123.1592721,49.3003354],[-123.1593086,49.3003544],[-123.1593668,49.3003686],[-123.1594177,49.3003686],[-123.1595124,49.3003779],[-123.159767,49.3003775],[-123.1598035,49.3003966],[-123.1598326,49.3004346],[-123.1597601,49.3004822],[-123.15968,49.3004823],[-123.1595345,49.3005016],[-123.1593819,49.3005351],[-123.1593311,49.3005732],[-123.1593247,49.3007229],[-123.1594048,49.3007465],[-123.159463,49.3007702],[-123.1595067,49.3007797],[-123.1597396,49.3007842],[-123.1597905,49.3007889],[-123.1598925,49.300822],[-123.1599362,49.3008457],[-123.1599582,49.3008885],[-123.1599584,49.3009502],[-123.1599076,49.3009979],[-123.1596679,49.3011077],[-123.1595808,49.3011696],[-123.1595518,49.3012219],[-123.1594938,49.3012601],[-123.1594356,49.3012697],[-123.1592973,49.3013175],[-123.1592392,49.3013603],[-123.1590939,49.3014319],[-123.1590577,49.3014556],[-123.1588906,49.3015415],[-123.1588398,49.3015748],[-123.158789,49.3016225],[-123.1586917,49.3016918],[-123.1585754,49.3017157],[-123.1583645,49.3017398],[-123.1583354,49.3017588],[-123.1581898,49.3018161],[-123.1580953,49.3018306],[-123.1580227,49.3018829],[-123.1579503,49.3019734],[-123.1579358,49.302021],[-123.1578998,49.3020876],[-123.1578634,49.3020972],[-123.1577906,49.302102],[-123.1576815,49.3020974],[-123.1576451,49.3021164],[-123.1576235,49.3021593],[-123.1576237,49.3022259],[-123.1576455,49.3022544],[-123.1576603,49.3022972],[-123.1576605,49.3023543],[-123.1576825,49.3024303],[-123.1576829,49.3025492],[-123.1576468,49.3026634],[-123.1576252,49.3026968],[-123.1575961,49.3027253],[-123.1575526,49.3027492],[-123.1575235,49.3027587],[-123.1574872,49.3027874],[-123.1574801,49.3028396],[-123.1574878,49.302987],[-123.1574953,49.3030441],[-123.1575101,49.3030964],[-123.157532,49.3031345],[-123.1575836,49.3033579],[-123.1576203,49.3034577],[-123.1576215,49.3035747],[-123.1576071,49.3036461],[-123.1576073,49.3037032],[-123.1576148,49.3037364],[-123.1576658,49.3037696],[-123.1577313,49.3037886],[-123.1578476,49.3037742],[-123.1579133,49.3037598],[-123.1579861,49.3037644],[-123.158037,49.3037502],[-123.1581678,49.3037309],[-123.1582261,49.3037165],[-123.1583497,49.3037164],[-123.1584808,49.3037257],[-123.1585825,49.3037018],[-123.1586772,49.3037065],[-123.1588008,49.3036968],[-123.1590339,49.303706],[-123.1590921,49.3037154],[-123.159114,49.3037487],[-123.1590923,49.3037725],[-123.1590343,49.3038201],[-123.1589543,49.3038535],[-123.1588013,49.3038585],[-123.1586631,49.3038825],[-123.1585686,49.3038779],[-123.1584594,49.3039018],[-123.1583577,49.3039352],[-123.158167,49.3040081],[-123.1581017,49.3040415],[-123.1580434,49.3040511],[-123.1579708,49.3040702],[-123.1579126,49.3040751],[-123.1578689,49.3040846],[-123.1575414,49.3041136],[-123.1574906,49.3041232],[-123.1574541,49.3041233],[-123.1574105,49.3041328],[-123.1573598,49.3041947],[-123.1573599,49.3042374],[-123.1573093,49.304347],[-123.1573095,49.3043993],[-123.1572444,49.3044992],[-123.1572008,49.3045469],[-123.1571648,49.3046516],[-123.1571141,49.3047324],[-123.1570997,49.3047705],[-123.1570925,49.3048228],[-123.1570781,49.3048704],[-123.1570782,49.3049038],[-123.157035,49.305056],[-123.1569844,49.3051511],[-123.15697,49.3051892],[-123.1569703,49.3052654],[-123.1569851,49.3053722],[-123.1569562,49.3054102],[-123.156949,49.3054435],[-123.156913,49.3055482],[-123.1569132,49.3056291],[-123.1568989,49.3057004],[-123.1568772,49.3057432],[-123.1568773,49.3057814],[-123.1568557,49.3058384],[-123.1568486,49.3058812],[-123.156834,49.3059145],[-123.156827,49.3059715],[-123.1568054,49.3060382],[-123.1568055,49.3060763],[-123.1567911,49.3061381],[-123.156755,49.3061953],[-123.156689,49.3063643],[-123.1566891,49.3064023],[-123.1566746,49.3064261],[-123.1566747,49.3064689],[-123.1566387,49.3065593],[-123.1566242,49.3066117],[-123.1566172,49.3066687],[-123.1566027,49.306702],[-123.156581,49.3067353],[-123.1565811,49.3067782],[-123.1565562,49.306858],[-123.1565163,49.306918],[-123.1564669,49.3069666],[-123.1564327,49.3070128],[-123.1563985,49.3071583],[-123.1563704,49.3073478],[-123.1563442,49.307485],[-123.1563345,49.3075005],[-123.1563173,49.3075131],[-123.1563098,49.3075343],[-123.1562852,49.3075716],[-123.1562814,49.3076128],[-123.1562891,49.3076315],[-123.1562951,49.3076864],[-123.1563085,49.30773],[-123.1563105,49.3077611],[-123.1563373,49.3078117],[-123.1563451,49.3078416],[-123.1563453,49.307894],[-123.1563339,49.3079176],[-123.1563284,49.3080112],[-123.1563306,49.3080989],[-123.1563232,49.3081475],[-123.1563196,49.3082484],[-123.1563083,49.3083002],[-123.1563066,49.3083587],[-123.1562972,49.3083887],[-123.1562973,49.3084435],[-123.1562823,49.3085034],[-123.1562842,49.3085171],[-123.1562786,49.3085433],[-123.1562653,49.3085644],[-123.1562634,49.3085894],[-123.1562465,49.3086542],[-123.156241,49.3087103],[-123.1562238,49.308734],[-123.1562029,49.3087491],[-123.1561553,49.3087579],[-123.1561438,49.3087666],[-123.1561135,49.3088077],[-123.1560868,49.3088128],[-123.1560066,49.3088091],[-123.1559571,49.3088241],[-123.1558484,49.3088219],[-123.1557453,49.3087908],[-123.1556767,49.3087859],[-123.1555947,49.3087972],[-123.1554931,49.308804],[-123.1554358,49.3088178],[-123.1552967,49.3088366],[-123.1552452,49.3088492],[-123.1549528,49.3089384],[-123.154869,49.3089722],[-123.1548207,49.3090151],[-123.1547406,49.3090638],[-123.1546665,49.3091362],[-123.1546171,49.3092011],[-123.1545945,49.3092859],[-123.1545275,49.3093384],[-123.1544623,49.3094003],[-123.1544188,49.3094527],[-123.154321,49.3095073],[-123.154263,49.3095455],[-123.154183,49.3095789],[-123.1540812,49.3096123],[-123.1540085,49.3096504],[-123.1539795,49.30966],[-123.1538123,49.3097553],[-123.1537542,49.3097649],[-123.1537033,49.3097935],[-123.1536672,49.3098363],[-123.1535945,49.3098888],[-123.1534346,49.3099556],[-123.1533838,49.3100033],[-123.1533547,49.3100509],[-123.1533258,49.3101318],[-123.1533012,49.3102355],[-123.1533132,49.310289],[-123.1533074,49.3103215],[-123.1532956,49.3103387],[-123.1532724,49.3103579],[-123.1532228,49.3103846],[-123.153214,49.3104057],[-123.153223,49.3104496],[-123.1532494,49.3104859],[-123.1532611,49.3105183],[-123.1532614,49.3106023],[-123.1532849,49.3106404],[-123.1533026,49.3106844],[-123.1533026,49.3106959],[-123.1532793,49.3107378],[-123.1533033,49.3108058],[-123.1532888,49.310821],[-123.1532774,49.3108535],[-123.1533094,49.3108726],[-123.1533707,49.3108553],[-123.1534262,49.3108533],[-123.1534584,49.3108609],[-123.153482,49.3108761],[-123.1534995,49.310899],[-123.1535229,49.3109085],[-123.1535638,49.3109008],[-123.1535928,49.3108894],[-123.1536163,49.3108951],[-123.1536341,49.3109065],[-123.1536662,49.3109542],[-123.1536693,49.3109905],[-123.153681,49.3110076],[-123.1536814,49.3111261],[-123.1536903,49.3111422],[-123.1536787,49.3111823],[-123.1536847,49.3112224],[-123.1536789,49.3112453],[-123.153647,49.3112797],[-123.1536471,49.3113008],[-123.1536646,49.3113141],[-123.1536676,49.3113294],[-123.153627,49.3113983],[-123.1535977,49.3114155],[-123.1535918,49.3114288],[-123.1535919,49.311448],[-123.1536037,49.3114612],[-123.1535949,49.3114842],[-123.1535716,49.3114957],[-123.1534928,49.3115188],[-123.1534401,49.3115226],[-123.1533379,49.3115476],[-123.1532825,49.3115553],[-123.1532357,49.3115706],[-123.1530647,49.3115734],[-123.1530239,49.3115697],[-123.1528837,49.3115985],[-123.1528456,49.3116138],[-123.1527991,49.3116235],[-123.1527172,49.3116312],[-123.152647,49.3116504],[-123.1525652,49.3116563],[-123.1524776,49.3116773],[-123.1524456,49.3116927],[-123.1524048,49.3117252],[-123.1523055,49.3117807],[-123.1522031,49.3118674],[-123.1521914,49.3119037],[-123.1521709,49.3119266],[-123.152145,49.3119878],[-123.1521452,49.3120355],[-123.1521394,49.3120565],[-123.1521189,49.3120871],[-123.1521211,49.3121319],[-123.1520746,49.3121644],[-123.1520219,49.3121874],[-123.1520104,49.3122046],[-123.1519723,49.3122199],[-123.1519491,49.3122429],[-123.1519199,49.312262],[-123.1518731,49.312285],[-123.1518411,49.3123156],[-123.1516515,49.3124017],[-123.1515901,49.312421],[-123.1515345,49.3124496],[-123.1515026,49.3124803],[-123.1514414,49.3125205],[-123.1514018,49.3125343],[-123.1513844,49.3125534],[-123.1513524,49.3125763],[-123.1513116,49.3125955],[-123.1512998,49.3126108],[-123.1512503,49.3126242],[-123.1512239,49.3126395],[-123.1510605,49.3126818],[-123.1510312,49.3126933],[-123.150929,49.3127163],[-123.1507538,49.3127777],[-123.1506019,49.3127817],[-123.1505201,49.3128066],[-123.1504646,49.3128163],[-123.1503184,49.3128336],[-123.150298,49.3128413],[-123.1500906,49.3128587],[-123.1500233,49.312876],[-123.149937,49.312886],[-123.1499223,49.3128918],[-123.149826,49.31289],[-123.1497587,49.3128958],[-123.1496534,49.3128884],[-123.1495453,49.3129018],[-123.1492999,49.3129098],[-123.1492735,49.3129003],[-123.1492414,49.3128965],[-123.149183,49.3129004],[-123.1490749,49.3129235],[-123.1490369,49.3129044],[-123.1490221,49.3129045],[-123.1490241,49.3129144],[-123.1489919,49.3129411],[-123.1489511,49.312966],[-123.1488782,49.3129929],[-123.1488021,49.3130102],[-123.1487731,49.3130216],[-123.1486706,49.3130427],[-123.1486386,49.3130427],[-123.1485802,49.3130334],[-123.1485217,49.3130334],[-123.1485014,49.3130449],[-123.1484633,49.3131214],[-123.1484285,49.3131424],[-123.1483641,49.3131425],[-123.1482998,49.3131521],[-123.148227,49.3131828],[-123.1481423,49.3131886],[-123.1480516,49.3132097],[-123.1479582,49.3132118],[-123.1479376,49.3132251],[-123.1478543,49.3132468],[-123.1477606,49.3132565],[-123.1476934,49.3132528],[-123.1476204,49.3132585],[-123.1475941,49.3132701],[-123.1475503,49.3133236],[-123.147527,49.3133312],[-123.1474279,49.3133924],[-123.1473725,49.3134136],[-123.147352,49.3134289],[-123.1473403,49.3134613],[-123.1473288,49.3134766],[-123.1473143,49.3134843],[-123.1472849,49.3134843],[-123.1472586,49.313492],[-123.1472557,49.3135054],[-123.147282,49.3135149],[-123.1472646,49.3135245],[-123.1471973,49.3135264],[-123.1471039,49.3135132],[-123.1470657,49.3135132],[-123.1470396,49.313521],[-123.1468906,49.3135307],[-123.146873,49.3135269],[-123.1468581,49.3134963],[-123.1468377,49.3134868],[-123.1467677,49.3134773],[-123.1466534,49.3134508],[-123.146592,49.313426],[-123.1464868,49.3134337],[-123.1464558,49.3134419],[-123.1463564,49.3134438],[-123.1462835,49.3134554],[-123.1462133,49.3134593],[-123.1461929,49.3134689],[-123.1459884,49.313494],[-123.1458834,49.31354],[-123.1458656,49.3135552],[-123.1458395,49.313561],[-123.1458015,49.3135553],[-123.1457577,49.313563],[-123.1456497,49.3136128],[-123.1456145,49.3136262],[-123.1455854,49.3136281],[-123.1455765,49.3136339],[-123.1454918,49.3136454],[-123.1454159,49.3136455],[-123.1453984,49.3136341],[-123.1453516,49.3136265],[-123.1453194,49.3136152],[-123.145299,49.3136247],[-123.1452784,49.3136419],[-123.1452259,49.31364],[-123.1451929,49.3136517],[-123.1451431,49.3136613],[-123.1450145,49.3136635],[-123.145,49.3136711],[-123.1449093,49.3136713],[-123.14481,49.3136789],[-123.1447368,49.3136676],[-123.1446989,49.3136867],[-123.1446845,49.3137059],[-123.1446581,49.3137212],[-123.1445968,49.3137404],[-123.1445648,49.3137461],[-123.144512,49.3137462],[-123.1444711,49.3137616],[-123.1443805,49.3137769],[-123.1443311,49.3137692],[-123.1442214,49.3137678],[-123.1441805,49.3137622],[-123.144157,49.3137507],[-123.1441306,49.313747],[-123.144084,49.3137261],[-123.1440458,49.3137204],[-123.143964,49.3137186],[-123.1439406,49.313728],[-123.1438911,49.3137377],[-123.1438404,49.3137344],[-123.1437731,49.3137402],[-123.1437643,49.3137421],[-123.1437643,49.3137535],[-123.1437352,49.313767],[-123.1436795,49.3137651],[-123.1436564,49.3137842],[-123.143592,49.3137843],[-123.1435569,49.3137786],[-123.1434868,49.3137921],[-123.1434809,49.3138131],[-123.1434665,49.3138265],[-123.1434431,49.3138341],[-123.1433933,49.3138361],[-123.1433643,49.3138438],[-123.1433438,49.313861],[-123.143338,49.3138744],[-123.1433235,49.3138839],[-123.1433001,49.3138878],[-123.1432825,49.3139088],[-123.1432065,49.3139261],[-123.1431628,49.3139453],[-123.1431336,49.3139434],[-123.1430928,49.3139549],[-123.1430489,49.3139606],[-123.1429903,49.3139779],[-123.1429699,49.3139894],[-123.1429453,49.3139897],[-123.1429396,49.3139955],[-123.1429045,49.3140051],[-123.1428899,49.3140031],[-123.1428169,49.3140319],[-123.1427848,49.3140281],[-123.1427614,49.3140319],[-123.1427379,49.3140454],[-123.1427001,49.3140511],[-123.1426825,49.3140454],[-123.1426328,49.3140531],[-123.1425685,49.314055],[-123.1424685,49.3140437],[-123.1424596,49.3140361],[-123.1424392,49.3140342],[-123.1424042,49.314063],[-123.1423546,49.3140706],[-123.1423311,49.3140649],[-123.1423076,49.3140516],[-123.1422492,49.3140535],[-123.1422318,49.3140593],[-123.142179,49.3140613],[-123.1420916,49.3140748],[-123.1420095,49.314071],[-123.1419455,49.3140787],[-123.1419191,49.3140865],[-123.1418168,49.3140675],[-123.1417203,49.3140752],[-123.1416726,49.3140864],[-123.1416258,49.3140904],[-123.1416054,49.3140979],[-123.1415206,49.3140962],[-123.1414418,49.3141039],[-123.1413922,49.3141021],[-123.1413745,49.3140925],[-123.1413423,49.3140601],[-123.1412926,49.3140449],[-123.1412486,49.3140201],[-123.141196,49.3140068],[-123.1411344,49.3139267],[-123.1410934,49.3138579],[-123.1410427,49.3137236],[-123.1410163,49.3136721],[-123.1410192,49.3136549],[-123.1410046,49.313632],[-123.1409869,49.3136187],[-123.1409487,49.3135767],[-123.140902,49.3135481],[-123.1408872,49.3135329],[-123.1408582,49.313529],[-123.1407849,49.3134948],[-123.1407732,49.3134795],[-123.1407497,49.3134624],[-123.1406504,49.3134282],[-123.140512,49.3134054],[-123.1403282,49.3133674],[-123.1402736,49.3133501],[-123.1402408,49.3133319],[-123.1401936,49.3133248],[-123.140151,49.3133106],[-123.1400987,49.3133027],[-123.1400418,49.3133099],[-123.1399459,49.3133116],[-123.1399325,49.3133093],[-123.139919,49.3132934],[-123.1398646,49.3132998],[-123.1398221,49.3132808],[-123.1397978,49.3132817],[-123.1397712,49.3132754],[-123.1397565,49.3132643],[-123.1397164,49.3132612],[-123.1397068,49.3132493],[-123.1397565,49.3132516],[-123.139776,49.3132468],[-123.139935,49.3132672],[-123.139958,49.3132648],[-123.1399664,49.3132585],[-123.1399587,49.3132512],[-123.139903,49.3132284],[-123.1398761,49.3132014],[-123.1398093,49.3131722],[-123.1397837,49.3131429],[-123.1396794,49.3131335],[-123.1396089,49.3131217],[-123.1395871,49.3131066],[-123.1395726,49.3130892],[-123.1395506,49.3130821],[-123.1395331,49.3130604],[-123.1395039,49.3130359],[-123.1395065,49.3130288],[-123.139515,49.3130263],[-123.1395525,49.313035],[-123.1395659,49.3130255],[-123.1395209,49.3129962],[-123.1395451,49.3129851],[-123.1395411,49.3129667],[-123.1394694,49.312935],[-123.1394644,49.3129208],[-123.1394475,49.3129072],[-123.1393795,49.3128686],[-123.1393527,49.3128591],[-123.139314,49.3128623],[-123.1392945,49.3128489],[-123.1392653,49.3127807],[-123.1392673,49.3127494],[-123.139243,49.3126916],[-123.1392245,49.312667],[-123.1392065,49.3126536],[-123.1391965,49.3126314],[-123.1391699,49.3126108],[-123.139143,49.3125624],[-123.1391369,49.3125316],[-123.139098,49.3124992],[-123.1390895,49.312488],[-123.1390846,49.3124658],[-123.1390517,49.3124564],[-123.1390365,49.3124389],[-123.1390303,49.3124238],[-123.1390083,49.3124134],[-123.1390144,49.3124086],[-123.1390034,49.3124047],[-123.1390071,49.3123983],[-123.1390021,49.3123926],[-123.1389789,49.3123823],[-123.1389582,49.3123505],[-123.1389593,49.3123259],[-123.138952,49.3123187],[-123.1389215,49.312332],[-123.1389142,49.3123304],[-123.1388983,49.3123026],[-123.1388958,49.3122882],[-123.1388762,49.312289],[-123.1388555,49.3122787],[-123.1388518,49.3122667],[-123.1388555,49.3122523],[-123.1388062,49.3122251],[-123.1387794,49.3122163],[-123.1387707,49.3121979],[-123.1387474,49.3121781],[-123.138739,49.3121741],[-123.1387122,49.3121773],[-123.1386974,49.3121678],[-123.1386986,49.3121574],[-123.1386756,49.3121487],[-123.1386547,49.3121335],[-123.1386498,49.3121256],[-123.1386522,49.312104],[-123.1386436,49.3120977],[-123.1386192,49.3121017],[-123.1385959,49.3120906],[-123.1385679,49.3120436],[-123.1385653,49.3120292],[-123.1385286,49.3120061],[-123.1385262,49.3119989],[-123.1385323,49.3119893],[-123.138514,49.3119662],[-123.1385224,49.3119662],[-123.1385274,49.3119606],[-123.1385139,49.3119535],[-123.1385029,49.3119328],[-123.1384723,49.3119217],[-123.1384808,49.3119105],[-123.1384784,49.3119033],[-123.1384557,49.3118853],[-123.1384419,49.3118547],[-123.1384139,49.3118207],[-123.1384138,49.3118093],[-123.1383792,49.31179],[-123.1383392,49.3117868],[-123.1382746,49.3117616],[-123.1382519,49.3117184],[-123.1382483,49.3116719],[-123.138196,49.3116584],[-123.138163,49.3116436],[-123.1381335,49.3116403],[-123.1380899,49.3115938],[-123.1380725,49.3115813],[-123.1380602,49.311538],[-123.1380426,49.3115085],[-123.1379487,49.3115006],[-123.1379296,49.3114859],[-123.137895,49.3114722],[-123.1378533,49.3114416],[-123.137831,49.3114025],[-123.1378124,49.3113963],[-123.1377962,49.3114011],[-123.1377846,49.3113976],[-123.1377805,49.3113838],[-123.1377738,49.3113803],[-123.1377317,49.3113693],[-123.1377119,49.3113577],[-123.1376386,49.3113423],[-123.1375868,49.3113202],[-123.1375699,49.3113045],[-123.13758,49.3112908],[-123.1375786,49.3112633],[-123.137573,49.3112536],[-123.1374922,49.3112514],[-123.137465,49.3112403],[-123.1374568,49.3112256],[-123.1374493,49.3112309],[-123.1374343,49.3112315],[-123.137429,49.3112257],[-123.137448,49.3112017],[-123.1374479,49.3111929],[-123.1374391,49.3111875],[-123.1374116,49.311194],[-123.137406,49.3111823],[-123.1374101,49.3111733],[-123.1374046,49.311141],[-123.1373935,49.3111365],[-123.1373934,49.3111004],[-123.137374,49.311059],[-123.1373805,49.3110496],[-123.1373836,49.3110265],[-123.1373771,49.3110118],[-123.1373593,49.3109961],[-123.1373277,49.3109922],[-123.1373208,49.3109874],[-123.1373029,49.3109401],[-123.1372914,49.3109286],[-123.1372754,49.310876],[-123.1372639,49.3108603],[-123.1372623,49.3108539],[-123.1372782,49.3108241],[-123.1372798,49.3108],[-123.1372717,49.3107832],[-123.1372797,49.3107559],[-123.1372764,49.3107401],[-123.1372683,49.3107327],[-123.1372731,49.3107158],[-123.1372715,49.3106854],[-123.137265,49.310677],[-123.1372536,49.3106349],[-123.1372375,49.3106171],[-123.1372343,49.3106045],[-123.1371872,49.3105792],[-123.1371871,49.3105507],[-123.1371694,49.3105319],[-123.1371581,49.3105055],[-123.1371307,49.3104982],[-123.1371034,49.3105015],[-123.1370471,49.3104952],[-123.1370149,49.3105005],[-123.1369876,49.3104963],[-123.136923,49.3104197],[-123.1368891,49.3103924],[-123.1368388,49.3103363],[-123.1368323,49.3103194],[-123.1368354,49.310309],[-123.1368323,49.3102974],[-123.1368242,49.3102869],[-123.1367694,49.3102638],[-123.1367597,49.3102386],[-123.1366644,49.3101827],[-123.1366531,49.3101438],[-123.13664,49.3101281],[-123.1365693,49.3100934],[-123.1365578,49.3100819],[-123.1365577,49.3100483],[-123.1365429,49.3100227],[-123.1365237,49.3100059],[-123.1364704,49.3099839],[-123.1364512,49.3099629],[-123.136411,49.3099461],[-123.1363836,49.309921],[-123.1363739,49.3099041],[-123.1363689,49.3098747],[-123.136364,49.3098148],[-123.1363717,49.3097822],[-123.1363618,49.3096862],[-123.1363475,49.3096673],[-123.1363459,49.3096578],[-123.136357,49.3096347],[-123.136357,49.3096085],[-123.1363634,49.3095969],[-123.1363649,49.3095716],[-123.1363471,49.3095328],[-123.1363448,49.3094303],[-123.1363318,49.3093925],[-123.1363173,49.3093726],[-123.1362866,49.3093495],[-123.1362319,49.3093369],[-123.1362061,49.3093212],[-123.1362094,49.3093117],[-123.1361932,49.3092918],[-123.1362092,49.3092528],[-123.1361946,49.3092297],[-123.1361202,49.3092062],[-123.136072,49.3091832],[-123.136051,49.3091801],[-123.1359946,49.3091476],[-123.135956,49.3091129],[-123.1359528,49.3091024],[-123.1359639,49.3090824],[-123.1359558,49.3090541],[-123.1359412,49.3090268],[-123.1359426,49.3089962],[-123.1359298,49.3089564],[-123.1358875,49.3088958],[-123.1358682,49.3088969],[-123.1358538,49.3089106],[-123.1358394,49.3089158],[-123.135804,49.3089149],[-123.1357847,49.3089022],[-123.1357523,49.3088476],[-123.1357649,49.3087972],[-123.1357601,49.3087771],[-123.1357408,49.3087562],[-123.1356876,49.3087289],[-123.1356796,49.3087205],[-123.1356714,49.3086964],[-123.1356618,49.3086806],[-123.1356471,49.3086712],[-123.1356392,49.3086597],[-123.1356096,49.3086045],[-123.1355564,49.3085677],[-123.135492,49.3085447],[-123.1354373,49.3085343],[-123.1353841,49.3085018],[-123.1353825,49.3084871],[-123.1354001,49.3084492],[-123.1354193,49.3084288],[-123.1354257,49.3084047],[-123.1354159,49.3083973],[-123.135379,49.3083994],[-123.1353404,49.3083943],[-123.1353034,49.3083743],[-123.1352712,49.3083796],[-123.135263,49.3083722],[-123.1352663,49.3083585],[-123.1352614,49.3083533],[-123.1352197,49.3083439],[-123.135197,49.3083187],[-123.1352,49.3082883],[-123.1352675,49.3082136],[-123.1352578,49.3081946],[-123.1352624,49.3081809],[-123.1352529,49.3081684],[-123.1352609,49.3081599],[-123.1352623,49.3081393],[-123.1352511,49.3081099],[-123.1352527,49.3081036],[-123.1352815,49.3081025],[-123.1353072,49.3080951],[-123.1353057,49.3080835],[-123.1353168,49.3080614],[-123.1353167,49.3080436],[-123.1353121,49.3080372],[-123.1353006,49.3080426],[-123.1352944,49.3080404],[-123.1352925,49.30803],[-123.1353023,49.3080005],[-123.1352943,49.3080058],[-123.1352878,49.3080005],[-123.1352989,49.3079732],[-123.1353295,49.3079395],[-123.1353372,49.3079069],[-123.1353372,49.3078901],[-123.1353245,49.3078849],[-123.1353148,49.3078818],[-123.1352729,49.3078919],[-123.1352697,49.3078667],[-123.1352278,49.307872],[-123.1352294,49.3078635],[-123.1352793,49.3078319],[-123.1353128,49.3078024],[-123.1353449,49.3077541],[-123.1353545,49.3077351],[-123.135356,49.3077204],[-123.1353044,49.3076869],[-123.1353061,49.3076816],[-123.1353334,49.3076732],[-123.1353366,49.3076605],[-123.1353025,49.3076475],[-123.135296,49.307637],[-123.1352637,49.3076139],[-123.1352282,49.307554],[-123.1352025,49.3075456],[-123.1351687,49.3075257],[-123.1351767,49.3075109],[-123.1351895,49.3075015],[-123.1351862,49.30749],[-123.1351637,49.3074836],[-123.1351621,49.3074784],[-123.1351877,49.3074301],[-123.1351989,49.3074216],[-123.1352118,49.3073995],[-123.1351794,49.3073365],[-123.1351551,49.3073145],[-123.1351374,49.3072867],[-123.1351357,49.3072584],[-123.1351258,49.3072447],[-123.1350324,49.3071965],[-123.1350082,49.3071733],[-123.1349985,49.3071565],[-123.1349985,49.307144],[-123.1350177,49.3071229],[-123.1350177,49.3071071],[-123.1349722,49.3070794],[-123.1349433,49.3070763],[-123.1349127,49.3070511],[-123.1349093,49.30703],[-123.1348981,49.3070217],[-123.1348595,49.3070112],[-123.1348402,49.3069997],[-123.1347788,49.3069272],[-123.1347434,49.3068989],[-123.1346533,49.3068853],[-123.1345131,49.3068434],[-123.1344641,49.3068178],[-123.1344301,49.3067916],[-123.13439,49.3067686],[-123.1343723,49.3067623],[-123.1343208,49.3067623],[-123.1343015,49.3067581],[-123.134229,49.3067151],[-123.1341727,49.3066899],[-123.1341017,49.306677],[-123.1340731,49.3066657],[-123.1340523,49.306644],[-123.1340328,49.3066365],[-123.134003,49.3066329],[-123.1339615,49.306607],[-123.1339109,49.3065929],[-123.1338593,49.3065884],[-123.1338524,49.3065839],[-123.1338491,49.3065689],[-123.1338559,49.3065262],[-123.1338522,49.3065128],[-123.1337936,49.3064821],[-123.133757,49.306426],[-123.1336773,49.3063891],[-123.1335099,49.3063323],[-123.1334844,49.3063046],[-123.1334834,49.3062708],[-123.1334349,49.3062425],[-123.1334156,49.3062253],[-123.1333776,49.3062111],[-123.1333535,49.3061946],[-123.1332189,49.3061896],[-123.1331339,49.3061664],[-123.1330786,49.306141],[-123.1330236,49.3061335],[-123.1329579,49.3060904],[-123.132882,49.3060622],[-123.13275,49.305991],[-123.1327214,49.3059656],[-123.1327131,49.3059386],[-123.1326776,49.3058862],[-123.1326706,49.3058623],[-123.1326399,49.3058143],[-123.1326071,49.3057775],[-123.132506,49.3056996],[-123.1324674,49.3056816],[-123.1324256,49.3056448],[-123.1324017,49.3056341],[-123.1323808,49.3056122],[-123.1323398,49.3055814],[-123.1323162,49.3055725],[-123.1322359,49.3055167],[-123.1322184,49.3054969],[-123.1321491,49.305441],[-123.1321198,49.3054013],[-123.1320853,49.3053853],[-123.1320589,49.3053586],[-123.1320188,49.3053355],[-123.1319405,49.3053111],[-123.1319375,49.3052817],[-123.1318946,49.3052248],[-123.1318853,49.3051927],[-123.1318773,49.3051808],[-123.1318371,49.305144],[-123.1318117,49.3051351],[-123.13181,49.3051226],[-123.1318278,49.305103],[-123.1318306,49.3050925],[-123.1318251,49.3050832],[-123.1318133,49.3050701],[-123.1317786,49.3050499],[-123.1317869,49.3050386],[-123.1318202,49.3050184],[-123.1318249,49.3050082],[-123.1318156,49.3049696],[-123.1318239,49.3049506],[-123.1318491,49.3049172],[-123.1318564,49.3048953],[-123.1318551,49.3048814],[-123.1317868,49.3048303],[-123.1317777,49.3048178],[-123.1317657,49.304772],[-123.1317385,49.3047358],[-123.1316944,49.3046578],[-123.1316525,49.3046073],[-123.1315948,49.304564],[-123.1315694,49.3045515],[-123.1314883,49.3044607],[-123.1314579,49.3044408],[-123.1314442,49.3044081],[-123.1314404,49.3043714],[-123.1314313,49.3043582],[-123.1313739,49.3043101],[-123.1313247,49.3042574],[-123.1311883,49.3041677],[-123.1311322,49.3041433],[-123.131061,49.3041043],[-123.1309672,49.3040187],[-123.1309185,49.3039821],[-123.1308659,49.3039503],[-123.1306056,49.3037177],[-123.1304628,49.3035661],[-123.1304106,49.303532],[-123.1303729,49.3034894],[-123.130295,49.3034496],[-123.1302122,49.3034142],[-123.1300345,49.3033579],[-123.1298447,49.3033221],[-123.1297998,49.3033247],[-123.1297585,49.3033199],[-123.1297247,49.3032979],[-123.1297173,49.3032734],[-123.1296909,49.3032293],[-123.1296596,49.3032237],[-123.1294124,49.3031505],[-123.1292212,49.303075],[-123.12909,49.3030114],[-123.12906,49.3029845],[-123.1290075,49.3029479],[-123.1289703,49.3029284],[-123.12894,49.3029065],[-123.1288725,49.3028257],[-123.1287002,49.3027648],[-123.1286251,49.3027526],[-123.1284868,49.3027504],[-123.1283969,49.3027602],[-123.128277,49.3027628],[-123.1282134,49.3027507],[-123.1280561,49.3026848],[-123.1278913,49.3026409],[-123.1277243,49.3026189],[-123.127537,49.302624],[-123.1272939,49.3026415],[-123.1271855,49.3026611],[-123.1271105,49.302693],[-123.1270172,49.302764],[-123.1269274,49.3027984],[-123.1268826,49.302823],[-123.1268638,49.3028352],[-123.1268191,49.3028792],[-123.1267354,49.3029037],[-123.1266641,49.3029086],[-123.1266079,49.3028988],[-123.1264358,49.3028868],[-123.1263346,49.3028551],[-123.1262222,49.3027965],[-123.1261769,49.3027451],[-123.1261396,49.3027184],[-123.125971,49.3026452],[-123.1259072,49.3025816],[-123.1258844,49.3024935],[-123.1258694,49.3024617],[-123.1258318,49.3024251],[-123.1258206,49.3024006],[-123.125768,49.3023542],[-123.1257193,49.3023175],[-123.1256782,49.3023005],[-123.1255908,49.3022132],[-123.1255532,49.3021888],[-123.1254668,49.302113],[-123.1252721,49.302008],[-123.125257,49.301986],[-123.1251745,49.301898],[-123.1250996,49.3018345],[-123.1250132,49.301771],[-123.1248959,49.3016967],[-123.1247687,49.3016504],[-123.124675,49.3015819],[-123.124566,49.3014598],[-123.1245398,49.3014206],[-123.1244761,49.3013596],[-123.1242436,49.3012203],[-123.1241011,49.3011667],[-123.1240074,49.3011155],[-123.1236666,49.3010032],[-123.1236479,49.300996],[-123.1236253,49.3009765],[-123.1236053,49.3009734],[-123.1234967,49.3009343],[-123.1233994,49.3009126],[-123.1232718,49.3008662],[-123.1232494,49.3008516],[-123.123182,49.3008393],[-123.1231296,49.3008222],[-123.1230996,49.3007954],[-123.1230432,49.3007686],[-123.1229458,49.3007319],[-123.1228859,49.3006709],[-123.1228484,49.3006538],[-123.1227998,49.3006415],[-123.1226875,49.3006417],[-123.1225749,49.3006198],[-123.1225613,49.3006065],[-123.1224674,49.3005797],[-123.1223926,49.30057],[-123.1221715,49.3005165],[-123.1220891,49.3004799],[-123.1220591,49.3004554],[-123.1220479,49.3004286],[-123.1220292,49.300404],[-123.1219618,49.3003919],[-123.121928,49.3003919],[-123.121823,49.3003333],[-123.1217857,49.3003212],[-123.1217406,49.3003187],[-123.1216244,49.3002847],[-123.1215535,49.3002578],[-123.1214523,49.300231],[-123.1214259,49.3002212],[-123.1214147,49.3001821],[-123.1213847,49.3001601],[-123.1213396,49.3001576],[-123.1213135,49.3001455],[-123.1212909,49.3001284],[-123.1212123,49.3001162],[-123.1211824,49.3000943],[-123.1211038,49.3000846],[-123.1210624,49.3000699],[-123.1209801,49.3000553],[-123.1208153,49.3000408],[-123.1206033,49.3000553],[-123.1204911,49.3000383],[-123.1204159,49.3000164],[-123.1202925,49.3000092],[-123.1201953,49.2999921],[-123.1201166,49.2999654],[-123.1200117,49.2999581],[-123.1199519,49.2999484],[-123.1197347,49.2999021],[-123.1196596,49.2999047],[-123.119555,49.2998876],[-123.1193977,49.2998878],[-123.1192593,49.299861],[-123.1192313,49.2998395],[-123.1191941,49.2998321],[-123.1191228,49.2998273],[-123.1190853,49.2998323],[-123.1190592,49.2998422],[-123.1190294,49.2998445],[-123.1189472,49.2998739],[-123.1187825,49.2999036],[-123.1187375,49.299928],[-123.1186705,49.2999941],[-123.1186182,49.3000309],[-123.1185918,49.3000407],[-123.1185359,49.3000775],[-123.1184349,49.3001217],[-123.1183936,49.3001462],[-123.1183565,49.3001804],[-123.1183302,49.3002123],[-123.1183265,49.3002245],[-123.1182593,49.3003297],[-123.1181924,49.3004081],[-123.1181848,49.3004253],[-123.1181811,49.3004643],[-123.1181737,49.3004865],[-123.1181551,49.3005158],[-123.118127,49.3005437],[-123.1180899,49.3005633],[-123.1180413,49.300605],[-123.1180338,49.300622],[-123.1180077,49.3006514],[-123.1179703,49.3006808],[-123.1179328,49.3007029],[-123.1178505,49.3007299],[-123.1177645,49.3007813],[-123.1177309,49.3007912],[-123.1176712,49.3008231],[-123.1176337,49.3008305],[-123.1175777,49.3008598],[-123.1175177,49.3008794],[-123.1174281,49.3009186],[-123.1173195,49.3009164],[-123.1172673,49.3009262],[-123.1171697,49.3009654],[-123.1171288,49.3009753],[-123.1170913,49.3009778],[-123.1169978,49.3009779],[-123.1169155,49.3009656],[-123.1168292,49.3009291],[-123.1167318,49.3009047],[-123.1167019,49.3008926],[-123.116608,49.3008193],[-123.1165253,49.3007043],[-123.1164692,49.300653],[-123.1164427,49.3005943],[-123.1163828,49.3005136],[-123.1163445,49.3003848],[-123.116333,49.3003603],[-123.1163106,49.3003188],[-123.1162769,49.3002797],[-123.1162618,49.3002478],[-123.1162392,49.300216],[-123.1162467,49.3001916],[-123.1163026,49.3001206],[-123.1163586,49.3000179],[-123.1164143,49.2999493],[-123.1164257,49.2999101],[-123.1164256,49.2998735],[-123.116418,49.299844],[-123.1164292,49.2998172],[-123.1164442,49.2998],[-123.1164476,49.2997535],[-123.11647,49.2996899],[-123.116493,49.2996542],[-123.1164967,49.2996174],[-123.1165077,49.2995807],[-123.1165227,49.2995637],[-123.11653,49.2995441],[-123.1165375,49.2995123],[-123.1165374,49.299473],[-123.1165635,49.2994535],[-123.1165598,49.2993948],[-123.1165891,49.2991648],[-123.1165927,49.2990571],[-123.1166037,49.2990058],[-123.1166146,49.2989103],[-123.116641,49.2988086],[-123.116652,49.2987842],[-123.116667,49.2986985],[-123.116667,49.298674],[-123.1166743,49.298652],[-123.1166892,49.29863],[-123.1166927,49.2985199],[-123.1167114,49.2984832],[-123.1167301,49.2984587],[-123.1167339,49.2984366],[-123.1167523,49.2983999],[-123.1167934,49.2983387],[-123.1168083,49.2983069],[-123.1168194,49.2982678],[-123.1168456,49.2982434],[-123.1169164,49.2981576],[-123.1170224,49.2980929],[-123.117097,49.2980317],[-123.1171419,49.2979851],[-123.1172391,49.2979091],[-123.1173137,49.2978772],[-123.1173662,49.2978674],[-123.117411,49.2978723],[-123.1174596,49.2978575],[-123.1175385,49.297855],[-123.1176545,49.2978647],[-123.117849,49.2978694],[-123.1180137,49.2978815],[-123.1180697,49.297879],[-123.1182248,49.2978884],[-123.1184381,49.2978809],[-123.1188462,49.297927],[-123.1188948,49.2979221],[-123.1189735,49.2979269],[-123.1190983,49.2979439],[-123.1192497,49.2979295],[-123.119347,49.2979012],[-123.1194875,49.2978727],[-123.1196823,49.2978443],[-123.1197689,49.297823],[-123.1198986,49.2978156],[-123.1200068,49.2978155],[-123.1201044,49.2978226],[-123.1204724,49.2979142],[-123.1205915,49.2979282],[-123.1206997,49.297928],[-123.120797,49.2979067],[-123.1209377,49.297843],[-123.1211215,49.2977861],[-123.1213054,49.2977506],[-123.1213811,49.2977293],[-123.1214457,49.2976798],[-123.1214996,49.297623],[-123.121521,49.2974675],[-123.1215568,49.2973784],[-123.1216206,49.2973453],[-123.1217911,49.2972974],[-123.1220075,49.2972689],[-123.1221805,49.2972545],[-123.1224076,49.297226],[-123.1231163,49.2974933],[-123.1240578,49.2975672],[-123.124069,49.2975635],[-123.1240914,49.2975378],[-123.1242484,49.2974973],[-123.124355,49.2974569],[-123.1244279,49.2974494],[-123.1246747,49.2974565],[-123.1247758,49.297449],[-123.1250395,49.2974194],[-123.1252527,49.2973789],[-123.1253535,49.2973751],[-123.1254546,49.2973604],[-123.1255779,49.2973309],[-123.1256733,49.297316],[-123.1257685,49.2972902],[-123.1258865,49.2972681],[-123.1260435,49.2972093],[-123.1261814,49.2971483],[-123.1263494,49.2970565],[-123.1266688,49.2967847],[-123.1267189,49.2967223],[-123.1267692,49.2966452],[-123.1268027,49.2965682],[-123.1268472,49.2964397],[-123.1268863,49.296381],[-123.1269255,49.2963443],[-123.1269423,49.2963003],[-123.1269534,49.296238],[-123.1269533,49.2961938],[-123.1269418,49.2961022],[-123.1269529,49.2960471],[-123.1270483,49.2960177],[-123.1271156,49.2960067],[-123.1272335,49.2959992],[-123.1273005,49.2959808],[-123.1274577,49.2959146],[-123.1274968,49.2958779],[-123.1275305,49.2958595],[-123.127693,49.295797],[-123.1279004,49.2957784],[-123.1279903,49.2957783],[-123.1281699,49.295756],[-123.1282147,49.295756],[-123.1282879,49.2957926],[-123.1283439,49.2958293],[-123.128507,49.2959061],[-123.1286426,49.2959307],[-123.128719,49.2959369],[-123.128773,49.2959492],[-123.1288715,49.2959969],[-123.1289034,49.2960197],[-123.1289734,49.296057],[-123.1291388,49.2961586],[-123.1292665,49.296265],[-123.1293905,49.29635],[-123.1295179,49.2964288],[-123.1295784,49.2964972],[-123.1296809,49.2965873],[-123.1297096,49.2966185],[-123.1297542,49.2966973],[-123.129818,49.2967927],[-123.1298531,49.2968654],[-123.129885,49.2969027],[-123.1299457,49.2970044],[-123.1300068,49.2970864],[-123.1300228,49.2971279],[-123.1300706,49.2972026],[-123.1301535,49.2972711],[-123.1302426,49.297354],[-123.1303397,49.2973912],[-123.1304986,49.2974388],[-123.1305304,49.297474],[-123.130556,49.2974865],[-123.1306894,49.2975112],[-123.1307275,49.2975091],[-123.1307784,49.2975278],[-123.1307975,49.2975422],[-123.130807,49.2975568],[-123.1308229,49.297565],[-123.1308389,49.297565],[-123.1308421,49.2975463],[-123.1308388,49.2975048],[-123.1308768,49.2974736],[-123.1309498,49.2974424],[-123.1310926,49.2974256],[-123.1311973,49.2973528],[-123.1313749,49.2972509],[-123.1314543,49.2972134],[-123.1314924,49.2972279],[-123.1315336,49.2971822],[-123.1315526,49.2971759],[-123.1315748,49.2971531],[-123.1315779,49.2971239],[-123.1316,49.2970866],[-123.1316713,49.2970479],[-123.1317188,49.2970106],[-123.1317694,49.2969482],[-123.1318772,49.2968567],[-123.1319025,49.2968276],[-123.1319692,49.2967943],[-123.1320802,49.2967256],[-123.1321436,49.2966985],[-123.1321944,49.2966923],[-123.132258,49.2966756],[-123.132331,49.2966755],[-123.1324009,49.2966837],[-123.1325567,49.296723],[-123.1326075,49.2967271],[-123.1326997,49.2967539],[-123.1328079,49.2967954],[-123.1329507,49.2967744],[-123.1329793,49.2967599],[-123.1330516,49.2967447],[-123.1331119,49.2967384],[-123.1333756,49.296734],[-123.1337759,49.2967585],[-123.1338108,49.2967563],[-123.1339632,49.2967167],[-123.1341093,49.2967248],[-123.1342555,49.2967122],[-123.1344144,49.29671],[-123.1346283,49.2966945],[-123.1347653,49.2966899],[-123.1348225,49.2966823],[-123.1348704,49.2966569],[-123.135053,49.2965415],[-123.1352686,49.2963656],[-123.1354611,49.2961545],[-123.1356634,49.295827],[-123.1357195,49.295504],[-123.1356965,49.295429],[-123.1356045,49.295347],[-123.1355285,49.2952978]]]}},{"type":"Feature","properties":{"name":"Harbour Green Park","class":"Community","source":"cov-parks"},"geometry":{"type":"Polygon","coordinates":[[[-123.118905,49.289793],[-123.1184996,49.2897927],[-123.1183843,49.2889865],[-123.1187474,49.2887465],[-123.1187426,49.2891827],[-123.119067,49.2891865],[-123.1193902,49.2892051],[-123.1196396,49.2892298],[-123.1199569,49.2892745],[-123.1202687,49.2893336],[-123.1205178,49.2893921],[-123.120789,49.2894652],[-123.1211618,49.289578],[-123.1212475,49.289464],[-123.1212963,49.2894785],[-123.1213823,49.2893539],[-123.1214397,49.2893712],[-123.12158,49.2891719],[-123.1219161,49.2892785],[-123.1222329,49.2893901],[-123.1220682,49.2895812],[-123.1221233,49.2896015],[-123.1220194,49.2897201],[-123.122066,49.2897375],[-123.1219434,49.2898643],[-123.1221994,49.2899744],[-123.1224386,49.2900856],[-123.122684,49.2902082],[-123.1229106,49.2903301],[-123.1232513,49.2905308],[-123.1238574,49.2909228],[-123.1233106,49.2912845],[-123.123389,49.2913352],[-123.1234014,49.2913521],[-123.1233992,49.2913685],[-123.1233843,49.2913826],[-123.1233607,49.2913899],[-123.1233355,49.2913887],[-123.1233168,49.2913813],[-123.12263,49.2909388],[-123.1223368,49.2907667],[-123.1221339,49.2906577],[-123.1218264,49.2905064],[-123.1214996,49.2903624],[-123.1212756,49.2902726],[-123.1209308,49.2901477],[-123.1206263,49.2900528],[-123.120391,49.2899906],[-123.1200702,49.2899204],[-123.1198251,49.2898775],[-123.1195769,49.289843],[-123.1192423,49.2898104],[-123.118905,49.289793]]]}},{"type":"Feature","properties":{"name":"Rainbow Park","class":"Neighbourhood","source":"cov-parks"},"geometry":{"type":"Polygon","coordinates":[[[-123.1180958,49.2793456],[-123.118905,49.27881],[-123.1192624,49.2790412],[-123.1184532,49.2795769],[-123.1180958,49.2793456]]]}},{"type":"Feature","properties":{"name":"East Park","class":"Neighbourhood","source":"cov-parks"},"geometry":{"type":"Polygon","coordinates":[[[-123.1044774,49.2714345],[-123.104401,49.2714339],[-123.1043749,49.2714863],[-123.1038459,49.2714829],[-123.1036104,49.2714461],[-123.1033981,49.2713692],[-123.1034165,49.2713245],[-123.1036162,49.2713596],[-123.103743,49.271195],[-123.1038478,49.2710284],[-123.1039334,49.270855],[-123.1039983,49.2706778],[-123.1040419,49.2704983],[-123.1040641,49.2703161],[-123.1044547,49.2703233],[-123.1044443,49.2705741],[-123.1045154,49.270542],[-123.1044774,49.2714345]]]}}]}